,Zipcode,Area,State,Region
0,30002,1.7,GA,South East
1,30004,57.39,GA,South East
2,30005,14.49,GA,South East
3,30008,9.45,GA,South East
4,30009,9.6,GA,South East
5,30011,26.62,GA,South East
6,30012,42.83,GA,South East
7,30013,28.36,GA,South East
8,30014,115.92,GA,South East
9,30016,91.57,GA,South East
10,30017,11.96,GA,South East
11,30019,46.33,GA,South East
12,30021,3.54,GA,South East
13,30022,25.44,GA,South East
14,30024,42.55,GA,South East
15,30025,67.72,GA,South East
16,30028,51.02,GA,South East
17,30030,6.51,GA,South East
18,30032,13.63,GA,South East
19,30033,9.24,GA,South East
20,30034,16.95,GA,South East
21,30035,8.55,GA,South East
22,30038,29.06,GA,South East
23,30039,25.04,GA,South East
24,30040,58.68,GA,South East
25,30041,58.83,GA,South East
26,30043,32.53,GA,South East
27,30044,24.49,GA,South East
28,30045,21.74,GA,South East
29,30046,15.66,GA,South East
30,30047,27.71,GA,South East
31,30052,87.46,GA,South East
32,30054,41.36,GA,South East
33,30055,51.35,GA,South East
34,30056,38.25,GA,South East
35,30058,30.78,GA,South East
36,30060,16.35,GA,South East
37,30062,25.81,GA,South East
38,30064,31.86,GA,South East
39,30066,27.24,GA,South East
40,30067,14.81,GA,South East
41,30068,14.33,GA,South East
42,30071,11.95,GA,South East
43,30073,82.51687782805432,GA,South East
44,30075,29.82,GA,South East
45,30076,15.57,GA,South East
46,30078,16.97,GA,South East
47,30079,1.28,GA,South East
48,30080,13.62,GA,South East
49,30082,10.48,GA,South East
50,30083,16.97,GA,South East
51,30084,15.26,GA,South East
52,30087,23.34,GA,South East
53,30088,7.77,GA,South East
54,30090,82.51687782805432,GA,South East
55,30092,10.97,GA,South East
56,30093,11.93,GA,South East
57,30094,40.37,GA,South East
58,30096,22.88,GA,South East
59,30097,22.48,GA,South East
60,30101,40.35,GA,South East
61,30102,29.29,GA,South East
62,30103,101.0,GA,South East
63,30104,38.3,GA,South East
64,30105,59.62,GA,South East
65,30106,12.4,GA,South East
66,30107,108.84,GA,South East
67,30108,88.06,GA,South East
68,30110,69.58,GA,South East
69,30113,103.35,GA,South East
70,30114,107.89,GA,South East
71,30115,60.78,GA,South East
72,30116,102.24,GA,South East
73,30117,109.6,GA,South East
74,30120,92.07,GA,South East
75,30121,56.49,GA,South East
76,30122,24.07,GA,South East
77,30124,60.29,GA,South East
78,30125,183.2,GA,South East
79,30126,20.71,GA,South East
80,30127,50.76,GA,South East
81,30132,109.94,GA,South East
82,30134,49.59,GA,South East
83,30135,83.75,GA,South East
84,30137,3.96,GA,South East
85,30139,71.73,GA,South East
86,30141,29.47,GA,South East
87,30143,139.26,GA,South East
88,30144,22.57,GA,South East
89,30145,79.54,GA,South East
90,30147,18.17,GA,South East
91,30148,10.73,GA,South East
92,30152,21.05,GA,South East
93,30153,119.14,GA,South East
94,30157,84.94,GA,South East
95,30161,141.8,GA,South East
96,30165,166.16,GA,South East
97,30168,12.5,GA,South East
98,30170,45.61,GA,South East
99,30171,52.82,GA,South East
100,30173,33.75,GA,South East
101,30175,88.13,GA,South East
102,30176,83.76,GA,South East
103,30177,5.05,GA,South East
104,30178,53.99,GA,South East
105,30179,74.79,GA,South East
106,30180,74.89,GA,South East
107,30182,35.61,GA,South East
108,30183,61.31,GA,South East
109,30184,67.51,GA,South East
110,30185,63.27,GA,South East
111,30187,34.41,GA,South East
112,30188,43.97,GA,South East
113,30189,19.45,GA,South East
114,30204,124.89,GA,South East
115,30205,36.35,GA,South East
116,30206,55.6,GA,South East
117,30213,64.12,GA,South East
118,30214,52.72,GA,South East
119,30215,71.69,GA,South East
120,30216,30.09,GA,South East
121,30217,259.75,GA,South East
122,30218,67.37,GA,South East
123,30220,54.9,GA,South East
124,30222,144.53,GA,South East
125,30223,108.32,GA,South East
126,30224,66.14,GA,South East
127,30228,74.82,GA,South East
128,30230,130.66,GA,South East
129,30233,155.72,GA,South East
130,30234,11.84,GA,South East
131,30236,32.2,GA,South East
132,30238,16.87,GA,South East
133,30240,139.59,GA,South East
134,30241,111.37,GA,South East
135,30248,70.57,GA,South East
136,30251,34.52,GA,South East
137,30252,91.21,GA,South East
138,30253,48.52,GA,South East
139,30256,34.35,GA,South East
140,30257,44.18,GA,South East
141,30258,55.93,GA,South East
142,30259,34.78,GA,South East
143,30260,11.27,GA,South East
144,30263,199.74,GA,South East
145,30265,42.55,GA,South East
146,30268,65.38,GA,South East
147,30269,25.08,GA,South East
148,30273,6.52,GA,South East
149,30274,10.56,GA,South East
150,30276,98.2,GA,South East
151,30277,44.48,GA,South East
152,30281,70.32,GA,South East
153,30285,17.03,GA,South East
154,30286,194.19,GA,South East
155,30288,7.81,GA,South East
156,30290,17.87,GA,South East
157,30291,12.2,GA,South East
158,30292,58.16,GA,South East
159,30293,80.5,GA,South East
160,30294,32.36,GA,South East
161,30295,43.65,GA,South East
162,30296,10.48,GA,South East
163,30297,10.97,GA,South East
164,30303,1.04,GA,South East
165,30304,82.51687782805432,GA,South East
166,30305,6.44,GA,South East
167,30306,4.39,GA,South East
168,30307,4.57,GA,South East
169,30308,1.59,GA,South East
170,30309,3.42,GA,South East
171,30310,8.82,GA,South East
172,30311,12.43,GA,South East
173,30312,3.35,GA,South East
174,30313,1.11,GA,South East
175,30314,4.67,GA,South East
176,30315,11.31,GA,South East
177,30316,12.52,GA,South East
178,30317,3.51,GA,South East
179,30318,20.36,GA,South East
180,30319,10.36,GA,South East
181,30324,5.26,GA,South East
182,30326,0.69,GA,South East
183,30327,16.79,GA,South East
184,30328,12.91,GA,South East
185,30329,5.41,GA,South East
186,30331,37.02,GA,South East
187,30334,82.51687782805432,GA,South East
188,30336,82.51687782805432,GA,South East
189,30337,12.06,GA,South East
190,30338,9.82,GA,South East
191,30339,8.21,GA,South East
192,30340,8.51,GA,South East
193,30341,10.17,GA,South East
194,30342,8.94,GA,South East
195,30344,12.09,GA,South East
196,30345,7.12,GA,South East
197,30346,1.01,GA,South East
198,30347,82.51687782805432,GA,South East
199,30349,45.91,GA,South East
200,30350,12.52,GA,South East
201,30354,10.75,GA,South East
202,30360,5.82,GA,South East
203,30361,82.51687782805432,GA,South East
204,30363,0.31,GA,South East
205,30369,82.51687782805432,GA,South East
206,30376,82.51687782805432,GA,South East
207,30379,82.51687782805432,GA,South East
208,30401,252.82,GA,South East
209,30410,66.82,GA,South East
210,30411,151.45,GA,South East
211,30413,123.48,GA,South East
212,30415,160.73,GA,South East
213,30417,172.62,GA,South East
214,30420,37.89,GA,South East
215,30421,101.05,GA,South East
216,30425,71.56,GA,South East
217,30426,118.78,GA,South East
218,30427,237.69,GA,South East
219,30428,148.8,GA,South East
220,30434,197.64,GA,South East
221,30436,282.48,GA,South East
222,30439,242.12,GA,South East
223,30441,182.53,GA,South East
224,30442,311.5,GA,South East
225,30445,79.72,GA,South East
226,30446,65.91,GA,South East
227,30450,49.49,GA,South East
228,30452,53.8,GA,South East
229,30453,123.25,GA,South East
230,30454,35.8,GA,South East
231,30455,43.75,GA,South East
232,30456,80.64,GA,South East
233,30457,176.87,GA,South East
234,30458,145.94,GA,South East
235,30461,161.06,GA,South East
236,30467,516.46,GA,South East
237,30470,29.1,GA,South East
238,30471,145.36,GA,South East
239,30473,83.02,GA,South East
240,30474,139.47,GA,South East
241,30477,70.72,GA,South East
242,30501,21.85,GA,South East
243,30504,16.57,GA,South East
244,30506,100.34,GA,South East
245,30507,71.04,GA,South East
246,30510,44.85,GA,South East
247,30511,29.82,GA,South East
248,30512,222.01,GA,South East
249,30513,148.65,GA,South East
250,30516,21.0,GA,South East
251,30517,27.95,GA,South East
252,30518,39.74,GA,South East
253,30519,34.29,GA,South East
254,30520,57.18,GA,South East
255,30521,94.48,GA,South East
256,30522,45.34,GA,South East
257,30523,172.25,GA,South East
258,30525,205.85,GA,South East
259,30527,25.36,GA,South East
260,30528,178.45,GA,South East
261,30529,51.44,GA,South East
262,30530,78.28,GA,South East
263,30531,38.34,GA,South East
264,30533,218.87,GA,South East
265,30534,229.02,GA,South East
266,30535,28.97,GA,South East
267,30536,154.27,GA,South East
268,30537,20.19,GA,South East
269,30538,25.46,GA,South East
270,30540,196.32,GA,South East
271,30541,70.35,GA,South East
272,30542,42.2,GA,South East
273,30543,37.74,GA,South East
274,30545,39.65,GA,South East
275,30546,135.21,GA,South East
276,30547,52.54,GA,South East
277,30548,38.72,GA,South East
278,30549,109.35,GA,South East
279,30552,54.52,GA,South East
280,30553,59.25,GA,South East
281,30554,72.95,GA,South East
282,30555,13.2,GA,South East
283,30557,55.73,GA,South East
284,30558,59.1,GA,South East
285,30559,49.37,GA,South East
286,30560,72.92,GA,South East
287,30563,34.79,GA,South East
288,30564,30.91,GA,South East
289,30565,34.09,GA,South East
290,30566,9.31,GA,South East
291,30567,31.28,GA,South East
292,30568,28.91,GA,South East
293,30571,56.18,GA,South East
294,30572,106.63,GA,South East
295,30575,11.53,GA,South East
296,30576,37.8,GA,South East
297,30577,162.41,GA,South East
298,30582,49.91,GA,South East
299,30601,23.6,GA,South East
300,30605,36.63,GA,South East
301,30606,30.48,GA,South East
302,30607,35.39,GA,South East
303,30619,26.69,GA,South East
304,30620,23.77,GA,South East
305,30621,48.76,GA,South East
306,30622,41.18,GA,South East
307,30624,43.05,GA,South East
308,30625,45.35,GA,South East
309,30627,124.48,GA,South East
310,30628,47.99,GA,South East
311,30629,74.76,GA,South East
312,30630,36.41,GA,South East
313,30631,193.65,GA,South East
314,30633,99.98,GA,South East
315,30634,48.15,GA,South East
316,30635,283.94,GA,South East
317,30641,34.09,GA,South East
318,30642,195.63,GA,South East
319,30643,115.59,GA,South East
320,30646,34.82,GA,South East
321,30648,84.28,GA,South East
322,30650,221.21,GA,South East
323,30655,86.22,GA,South East
324,30656,69.79,GA,South East
325,30660,100.21,GA,South East
326,30662,80.15,GA,South East
327,30663,55.21,GA,South East
328,30666,36.71,GA,South East
329,30667,78.13,GA,South East
330,30668,159.82,GA,South East
331,30669,124.35,GA,South East
332,30673,262.29,GA,South East
333,30677,118.15,GA,South East
334,30678,70.08,GA,South East
335,30680,91.67,GA,South East
336,30683,39.1,GA,South East
337,30701,151.4,GA,South East
338,30705,238.09,GA,South East
339,30707,128.84,GA,South East
340,30708,14.65,GA,South East
341,30710,47.51,GA,South East
342,30711,69.55,GA,South East
343,30720,48.47,GA,South East
344,30721,124.24,GA,South East
345,30725,14.94,GA,South East
346,30728,173.56,GA,South East
347,30730,55.39,GA,South East
348,30731,86.73,GA,South East
349,30733,15.28,GA,South East
350,30734,76.43,GA,South East
351,30735,62.26,GA,South East
352,30736,128.53,GA,South East
353,30738,86.03,GA,South East
354,30739,25.08,GA,South East
355,30740,50.85,GA,South East
356,30741,24.92,GA,South East
357,30742,3.35,GA,South East
358,30746,16.69,GA,South East
359,30747,183.04,GA,South East
360,30750,13.19,GA,South East
361,30752,77.98,GA,South East
362,30753,40.96,GA,South East
363,30755,35.57,GA,South East
364,30757,17.11,GA,South East
365,30802,132.46,GA,South East
366,30803,55.21,GA,South East
367,30805,35.35,GA,South East
368,30808,63.39,GA,South East
369,30809,43.67,GA,South East
370,30810,82.19,GA,South East
371,30813,49.68,GA,South East
372,30814,51.15,GA,South East
373,30815,130.72,GA,South East
374,30816,130.72,GA,South East
375,30817,192.61,GA,South East
376,30818,33.46,GA,South East
377,30820,84.1,GA,South East
378,30821,103.39,GA,South East
379,30823,72.61,GA,South East
380,30824,198.62,GA,South East
381,30828,135.67,GA,South East
382,30830,359.67,GA,South East
383,30833,68.22,GA,South East
384,30901,20.54,GA,South East
385,30904,10.36,GA,South East
386,30905,82.51687782805432,GA,South East
387,30906,84.45,GA,South East
388,30907,24.0,GA,South East
389,30909,26.01,GA,South East
390,30911,82.51687782805432,GA,South East
391,30913,82.51687782805432,GA,South East
392,31001,175.04,GA,South East
393,31002,115.57,GA,South East
394,31005,19.21,GA,South East
395,31006,181.49,GA,South East
396,31007,61.62,GA,South East
397,31008,69.76,GA,South East
398,31009,71.49,GA,South East
399,31011,49.56,GA,South East
400,31012,54.39,GA,South East
401,31014,210.97,GA,South East
402,31015,217.57,GA,South East
403,31016,91.17,GA,South East
404,31017,93.88,GA,South East
405,31018,91.44,GA,South East
406,31019,54.48,GA,South East
407,31020,106.92,GA,South East
408,31021,239.43,GA,South East
409,31022,43.29,GA,South East
410,31023,283.65,GA,South East
411,31024,335.81,GA,South East
412,31025,63.22,GA,South East
413,31027,176.18,GA,South East
414,31028,3.56,GA,South East
415,31029,257.25,GA,South East
416,31030,174.13,GA,South East
417,31031,133.23,GA,South East
418,31032,151.67,GA,South East
419,31033,74.23,GA,South East
420,31035,51.72,GA,South East
421,31036,251.8,GA,South East
422,31037,59.23,GA,South East
423,31038,92.8,GA,South East
424,31041,54.66,GA,South East
425,31042,96.94,GA,South East
426,31044,173.02,GA,South East
427,31045,3.63,GA,South East
428,31046,74.81,GA,South East
429,31047,71.87,GA,South East
430,31049,97.48,GA,South East
431,31050,21.94,GA,South East
432,31052,70.31,GA,South East
433,31054,50.75,GA,South East
434,31055,134.62,GA,South East
435,31057,86.92,GA,South East
436,31058,99.51,GA,South East
437,31060,101.79,GA,South East
438,31061,236.5,GA,South East
439,31063,114.19,GA,South East
440,31064,252.39,GA,South East
441,31065,64.46,GA,South East
442,31066,68.05,GA,South East
443,31068,89.83,GA,South East
444,31069,96.45,GA,South East
445,31070,50.79,GA,South East
446,31071,55.33,GA,South East
447,31072,75.7,GA,South East
448,31075,54.57,GA,South East
449,31076,119.87,GA,South East
450,31077,94.88,GA,South East
451,31078,105.6,GA,South East
452,31079,111.86,GA,South East
453,31081,35.4,GA,South East
454,31082,224.87,GA,South East
455,31085,44.27,GA,South East
456,31087,463.78,GA,South East
457,31088,31.43,GA,South East
458,31089,153.41,GA,South East
459,31090,143.73,GA,South East
460,31091,86.77,GA,South East
461,31092,187.57,GA,South East
462,31093,19.63,GA,South East
463,31094,107.93,GA,South East
464,31096,170.8,GA,South East
465,31097,53.46,GA,South East
466,31098,82.51687782805432,GA,South East
467,31120,82.51687782805432,GA,South East
468,31201,10.64,GA,South East
469,31204,14.63,GA,South East
470,31206,27.92,GA,South East
471,31210,41.33,GA,South East
472,31211,49.16,GA,South East
473,31216,55.11,GA,South East
474,31217,98.7,GA,South East
475,31220,47.49,GA,South East
476,31301,11.66,GA,South East
477,31302,42.41,GA,South East
478,31303,81.35,GA,South East
479,31305,42.11,GA,South East
480,31308,85.82,GA,South East
481,31309,24.4,GA,South East
482,31312,159.51,GA,South East
483,31313,63.16,GA,South East
484,31314,82.51687782805432,GA,South East
485,31315,82.51687782805432,GA,South East
486,31316,289.3,GA,South East
487,31320,115.32,GA,South East
488,31321,138.43,GA,South East
489,31322,28.26,GA,South East
490,31323,124.65,GA,South East
491,31324,127.68,GA,South East
492,31326,70.06,GA,South East
493,31328,4.98,GA,South East
494,31329,105.68,GA,South East
495,31331,295.58,GA,South East
496,31401,4.78,GA,South East
497,31404,14.74,GA,South East
498,31405,30.03,GA,South East
499,31406,25.54,GA,South East
500,31407,28.32,GA,South East
501,31408,24.4,GA,South East
502,31410,19.47,GA,South East
503,31411,21.14,GA,South East
504,31415,6.09,GA,South East
505,31419,63.55,GA,South East
506,31421,82.51687782805432,GA,South East
507,31501,13.18,GA,South East
508,31503,331.54,GA,South East
509,31510,209.17,GA,South East
510,31512,78.96,GA,South East
511,31513,330.37,GA,South East
512,31516,150.51,GA,South East
513,31518,45.17,GA,South East
514,31519,131.54,GA,South East
515,31520,16.87,GA,South East
516,31522,53.92,GA,South East
517,31523,185.02,GA,South East
518,31525,98.18,GA,South East
519,31527,17.65,GA,South East
520,31532,51.35,GA,South East
521,31533,63.83,GA,South East
522,31535,97.63,GA,South East
523,31537,290.07,GA,South East
524,31539,269.88,GA,South East
525,31542,102.09,GA,South East
526,31543,124.9,GA,South East
527,31544,101.39,GA,South East
528,31545,98.99,GA,South East
529,31546,169.88,GA,South East
530,31547,82.51687782805432,GA,South East
531,31548,55.92,GA,South East
532,31549,112.05,GA,South East
533,31550,51.02,GA,South East
534,31551,65.0,GA,South East
535,31552,85.57,GA,South East
536,31553,171.19,GA,South East
537,31554,197.15,GA,South East
538,31555,147.52,GA,South East
539,31557,104.44,GA,South East
540,31558,75.22,GA,South East
541,31560,136.88,GA,South East
542,31562,106.49,GA,South East
543,31563,111.38,GA,South East
544,31565,128.81,GA,South East
545,31566,63.3,GA,South East
546,31567,40.79,GA,South East
547,31568,125.12,GA,South East
548,31569,65.14,GA,South East
549,31601,153.38,GA,South East
550,31602,40.76,GA,South East
551,31605,53.25,GA,South East
552,31606,44.07,GA,South East
553,31620,124.01,GA,South East
554,31622,110.79,GA,South East
555,31624,79.08,GA,South East
556,31625,59.93,GA,South East
557,31626,142.91,GA,South East
558,31629,43.6,GA,South East
559,31630,89.03,GA,South East
560,31631,122.47,GA,South East
561,31632,110.95,GA,South East
562,31634,271.83,GA,South East
563,31635,112.61,GA,South East
564,31636,197.5,GA,South East
565,31637,78.64,GA,South East
566,31638,27.01,GA,South East
567,31639,220.27,GA,South East
568,31641,78.83,GA,South East
569,31642,182.11,GA,South East
570,31643,262.62,GA,South East
571,31645,49.63,GA,South East
572,31647,45.0,GA,South East
573,31648,4.62,GA,South East
574,31649,49.25,GA,South East
575,31650,101.15,GA,South East
576,31701,27.03,GA,South East
577,31705,153.86,GA,South East
578,31707,18.76,GA,South East
579,31709,126.99,GA,South East
580,31711,58.75,GA,South East
581,31712,49.12,GA,South East
582,31714,187.75,GA,South East
583,31716,80.89,GA,South East
584,31719,94.1,GA,South East
585,31721,213.14,GA,South East
586,31730,252.84,GA,South East
587,31733,57.03,GA,South East
588,31735,21.75,GA,South East
589,31738,62.25,GA,South East
590,31743,54.18,GA,South East
591,31744,122.65,GA,South East
592,31749,58.84,GA,South East
593,31750,281.56,GA,South East
594,31756,39.03,GA,South East
595,31757,85.11,GA,South East
596,31763,252.62,GA,South East
597,31764,78.61,GA,South East
598,31765,84.68,GA,South East
599,31768,151.05,GA,South East
600,31771,107.52,GA,South East
601,31772,62.97,GA,South East
602,31773,84.68,GA,South East
603,31774,167.63,GA,South East
604,31775,45.44,GA,South East
605,31778,106.01,GA,South East
606,31779,141.19,GA,South East
607,31780,99.75,GA,South East
608,31781,27.26,GA,South East
609,31783,99.2,GA,South East
610,31784,33.52,GA,South East
611,31787,88.24,GA,South East
612,31788,127.36,GA,South East
613,31789,64.08,GA,South East
614,31790,64.73,GA,South East
615,31791,189.87,GA,South East
616,31792,210.83,GA,South East
617,31793,99.52,GA,South East
618,31794,112.44,GA,South East
619,31795,49.5,GA,South East
620,31796,60.88,GA,South East
621,31798,77.38,GA,South East
622,31801,86.42,GA,South East
623,31803,282.77,GA,South East
624,31804,52.63,GA,South East
625,31805,70.82,GA,South East
626,31806,164.43,GA,South East
627,31807,11.63,GA,South East
628,31808,51.97,GA,South East
629,31811,130.73,GA,South East
630,31812,83.98,GA,South East
631,31815,248.89,GA,South East
632,31816,39.67,GA,South East
633,31820,39.97,GA,South East
634,31821,90.78,GA,South East
635,31822,114.64,GA,South East
636,31823,8.53,GA,South East
637,31824,112.37,GA,South East
638,31825,131.76,GA,South East
639,31826,52.28,GA,South East
640,31827,151.22,GA,South East
641,31829,11.67,GA,South East
642,31830,54.35,GA,South East
643,31831,66.59,GA,South East
644,31832,24.71,GA,South East
645,31833,98.07,GA,South East
646,31836,82.8,GA,South East
647,31901,4.45,GA,South East
648,31903,10.01,GA,South East
649,31904,28.83,GA,South East
650,31905,82.51687782805432,GA,South East
651,31906,6.87,GA,South East
652,31907,22.98,GA,South East
653,31909,18.21,GA,South East
654,39813,123.25,GA,South East
655,39815,51.33,GA,South East
656,39817,146.97,GA,South East
657,39819,155.33,GA,South East
658,39823,349.37,GA,South East
659,39824,56.29,GA,South East
660,39825,93.38,GA,South East
661,39826,20.86,GA,South East
662,39827,59.17,GA,South East
663,39828,138.48,GA,South East
664,39834,121.04,GA,South East
665,39836,77.27,GA,South East
666,39837,283.16,GA,South East
667,39840,211.12,GA,South East
668,39841,67.56,GA,South East
669,39842,283.35,GA,South East
670,39845,194.44,GA,South East
671,39846,86.4,GA,South East
672,39851,121.79,GA,South East
673,39854,130.29,GA,South East
674,39859,57.62,GA,South East
675,39861,53.32,GA,South East
676,39862,147.74,GA,South East
677,39866,55.94,GA,South East
678,39867,86.28,GA,South East
679,39870,185.15,GA,South East
680,39877,41.03,GA,South East
681,39886,122.28,GA,South East
682,39897,141.84,GA,South East
0,35004,18.07,AL,South East
1,35005,34.51,AL,South East
2,35006,99.81,AL,South East
3,35007,37.38,AL,South East
4,35010,217.59,AL,South East
5,35014,95.49,AL,South East
6,35016,74.35,AL,South East
7,35019,29.92,AL,South East
8,35020,19.0,AL,South East
9,35022,65.48,AL,South East
10,35023,90.43,AL,South East
11,35031,129.41,AL,South East
12,35033,75.81,AL,South East
13,35034,107.37,AL,South East
14,35035,71.08,AL,South East
15,35040,76.33,AL,South East
16,35042,150.44,AL,South East
17,35043,45.86,AL,South East
18,35044,57.69,AL,South East
19,35045,119.16,AL,South East
20,35046,134.61,AL,South East
21,35049,42.34,AL,South East
22,35051,108.26,AL,South East
23,35053,47.9,AL,South East
24,35054,26.14,AL,South East
25,35055,64.03,AL,South East
26,35057,126.86,AL,South East
27,35058,68.78,AL,South East
28,35061,1.97,AL,South East
29,35062,44.89,AL,South East
30,35063,39.16,AL,South East
31,35064,4.11,AL,South East
32,35068,13.96,AL,South East
33,35071,57.07,AL,South East
34,35072,189.46,AL,South East
35,35073,26.47,AL,South East
36,35077,150.53,AL,South East
37,35078,43.6,AL,South East
38,35079,106.13,AL,South East
39,35080,43.55,AL,South East
40,35083,36.49,AL,South East
41,35085,104.15,AL,South East
42,35087,22.43,AL,South East
43,35089,68.89,AL,South East
44,35091,6.55,AL,South East
45,35094,57.53,AL,South East
46,35096,78.87,AL,South East
47,35097,7.89,AL,South East
48,35098,30.23,AL,South East
49,35111,64.19,AL,South East
50,35114,12.43,AL,South East
51,35115,124.8,AL,South East
52,35116,22.15,AL,South East
53,35117,26.71,AL,South East
54,35118,37.13,AL,South East
55,35120,67.5,AL,South East
56,35121,143.82,AL,South East
57,35124,41.56,AL,South East
58,35125,47.49,AL,South East
59,35126,58.17,AL,South East
60,35127,9.84,AL,South East
61,35128,64.01,AL,South East
62,35130,67.44,AL,South East
63,35131,89.97,AL,South East
64,35133,48.31,AL,South East
65,35135,6.62,AL,South East
66,35136,216.11,AL,South East
67,35143,42.32,AL,South East
68,35146,106.74,AL,South East
69,35147,68.02,AL,South East
70,35148,6.19,AL,South East
71,35150,62.97,AL,South East
72,35151,169.8,AL,South East
73,35160,340.0,AL,South East
74,35171,29.46,AL,South East
75,35172,28.81,AL,South East
76,35173,63.6,AL,South East
77,35175,63.67,AL,South East
78,35176,10.57,AL,South East
79,35178,56.97,AL,South East
80,35179,93.3,AL,South East
81,35180,88.84,AL,South East
82,35183,67.53,AL,South East
83,35184,141.57,AL,South East
84,35186,55.27,AL,South East
85,35188,22.96,AL,South East
86,35203,2.02,AL,South East
87,35204,4.86,AL,South East
88,35205,3.63,AL,South East
89,35206,10.23,AL,South East
90,35207,10.4,AL,South East
91,35208,3.53,AL,South East
92,35209,9.33,AL,South East
93,35210,25.3,AL,South East
94,35211,17.66,AL,South East
95,35212,5.87,AL,South East
96,35213,6.35,AL,South East
97,35214,26.64,AL,South East
98,35215,28.67,AL,South East
99,35216,14.03,AL,South East
100,35217,18.08,AL,South East
101,35218,2.61,AL,South East
102,35221,3.65,AL,South East
103,35222,3.73,AL,South East
104,35223,8.22,AL,South East
105,35224,15.76,AL,South East
106,35226,17.9,AL,South East
107,35228,4.32,AL,South East
108,35233,1.68,AL,South East
109,35234,3.56,AL,South East
110,35235,14.02,AL,South East
111,35242,52.96,AL,South East
112,35243,12.14,AL,South East
113,35244,21.65,AL,South East
114,35401,47.61,AL,South East
115,35404,16.8,AL,South East
116,35405,47.56,AL,South East
117,35406,84.79,AL,South East
118,35441,66.74,AL,South East
119,35442,235.6,AL,South East
120,35443,189.47,AL,South East
121,35444,148.87,AL,South East
122,35446,60.88,AL,South East
123,35447,144.49,AL,South East
124,35452,51.96,AL,South East
125,35453,93.04,AL,South East
126,35456,84.72,AL,South East
127,35457,85.96760344827581,AL,South East
128,35458,25.56,AL,South East
129,35459,136.62,AL,South East
130,35460,97.22,AL,South East
131,35461,124.02,AL,South East
132,35462,312.93,AL,South East
133,35463,61.33,AL,South East
134,35464,32.97,AL,South East
135,35466,261.04,AL,South East
136,35469,18.59,AL,South East
137,35470,265.65,AL,South East
138,35473,25.15,AL,South East
139,35474,200.8,AL,South East
140,35475,214.99,AL,South East
141,35476,5.53,AL,South East
142,35480,68.25,AL,South East
143,35481,118.52,AL,South East
144,35490,67.17,AL,South East
145,35501,49.93,AL,South East
146,35503,79.64,AL,South East
147,35504,96.96,AL,South East
148,35540,73.74,AL,South East
149,35541,67.07,AL,South East
150,35542,55.32,AL,South East
151,35543,37.39,AL,South East
152,35544,71.77,AL,South East
153,35546,221.12,AL,South East
154,35548,65.06,AL,South East
155,35549,115.73,AL,South East
156,35550,65.81,AL,South East
157,35552,59.63,AL,South East
158,35553,142.44,AL,South East
159,35554,51.62,AL,South East
160,35555,315.95,AL,South East
161,35563,103.81,AL,South East
162,35564,67.26,AL,South East
163,35565,277.83,AL,South East
164,35570,239.0,AL,South East
165,35571,62.51,AL,South East
166,35572,74.56,AL,South East
167,35574,101.11,AL,South East
168,35575,37.21,AL,South East
169,35576,174.02,AL,South East
170,35578,119.33,AL,South East
171,35579,141.31,AL,South East
172,35580,78.42,AL,South East
173,35581,121.93,AL,South East
174,35582,88.91,AL,South East
175,35585,39.64,AL,South East
176,35586,182.46,AL,South East
177,35587,52.86,AL,South East
178,35592,124.72,AL,South East
179,35593,117.7,AL,South East
180,35594,144.47,AL,South East
181,35601,28.09,AL,South East
182,35603,70.36,AL,South East
183,35610,48.35,AL,South East
184,35611,114.04,AL,South East
185,35613,76.94,AL,South East
186,35614,63.59,AL,South East
187,35616,210.96,AL,South East
188,35618,46.0,AL,South East
189,35619,130.14,AL,South East
190,35620,108.86,AL,South East
191,35621,45.85,AL,South East
192,35622,96.72,AL,South East
193,35630,25.1,AL,South East
194,35633,208.97,AL,South East
195,35634,61.67,AL,South East
196,35640,109.84,AL,South East
197,35643,80.68,AL,South East
198,35645,86.27,AL,South East
199,35646,93.66,AL,South East
200,35647,23.59,AL,South East
201,35648,58.11,AL,South East
202,35650,211.59,AL,South East
203,35651,53.71,AL,South East
204,35652,83.89,AL,South East
205,35653,143.38,AL,South East
206,35654,142.13,AL,South East
207,35660,6.45,AL,South East
208,35661,55.92,AL,South East
209,35670,101.89,AL,South East
210,35671,52.66,AL,South East
211,35672,132.19,AL,South East
212,35673,43.82,AL,South East
213,35674,189.83,AL,South East
214,35677,109.55,AL,South East
215,35739,27.12,AL,South East
216,35740,35.7,AL,South East
217,35741,23.54,AL,South East
218,35744,33.3,AL,South East
219,35745,67.06,AL,South East
220,35746,58.05,AL,South East
221,35747,74.53,AL,South East
222,35748,80.97,AL,South East
223,35749,40.49,AL,South East
224,35750,63.54,AL,South East
225,35751,28.7,AL,South East
226,35752,46.73,AL,South East
227,35754,43.48,AL,South East
228,35755,17.13,AL,South East
229,35756,76.57,AL,South East
230,35757,12.01,AL,South East
231,35758,26.89,AL,South East
232,35759,16.25,AL,South East
233,35760,52.92,AL,South East
234,35761,116.55,AL,South East
235,35763,42.06,AL,South East
236,35764,33.23,AL,South East
237,35765,70.35,AL,South East
238,35766,35.82,AL,South East
239,35768,169.27,AL,South East
240,35769,62.63,AL,South East
241,35771,61.12,AL,South East
242,35772,172.13,AL,South East
243,35773,72.71,AL,South East
244,35774,14.15,AL,South East
245,35775,15.94,AL,South East
246,35776,90.38,AL,South East
247,35801,14.08,AL,South East
248,35802,18.13,AL,South East
249,35803,47.58,AL,South East
250,35805,9.15,AL,South East
251,35806,23.28,AL,South East
252,35808,85.96760344827581,AL,South East
253,35810,28.81,AL,South East
254,35811,46.25,AL,South East
255,35813,85.96760344827581,AL,South East
256,35816,5.3,AL,South East
257,35824,12.76,AL,South East
258,35901,59.49,AL,South East
259,35903,67.42,AL,South East
260,35904,46.17,AL,South East
261,35905,41.52,AL,South East
262,35906,35.3,AL,South East
263,35907,22.27,AL,South East
264,35950,44.58,AL,South East
265,35951,72.83,AL,South East
266,35952,109.63,AL,South East
267,35953,114.1,AL,South East
268,35954,104.46,AL,South East
269,35956,73.73,AL,South East
270,35957,79.58,AL,South East
271,35958,52.68,AL,South East
272,35959,62.39,AL,South East
273,35960,143.07,AL,South East
274,35961,127.87,AL,South East
275,35962,78.7,AL,South East
276,35963,27.75,AL,South East
277,35966,83.44,AL,South East
278,35967,125.0,AL,South East
279,35968,53.6,AL,South East
280,35971,56.72,AL,South East
281,35972,24.38,AL,South East
282,35973,114.44,AL,South East
283,35974,13.14,AL,South East
284,35975,34.23,AL,South East
285,35976,127.92,AL,South East
286,35978,67.4,AL,South East
287,35979,10.47,AL,South East
288,35980,55.45,AL,South East
289,35981,23.11,AL,South East
290,35983,50.12,AL,South East
291,35984,64.61,AL,South East
292,35986,45.25,AL,South East
293,35987,59.37,AL,South East
294,35988,12.21,AL,South East
295,35989,60.7,AL,South East
296,36003,93.38,AL,South East
297,36005,140.99,AL,South East
298,36006,71.47,AL,South East
299,36008,85.96760344827581,AL,South East
300,36009,150.16,AL,South East
301,36010,126.79,AL,South East
302,36013,17.38,AL,South East
303,36016,241.27,AL,South East
304,36017,62.26,AL,South East
305,36020,10.05,AL,South East
306,36022,90.78,AL,South East
307,36024,89.9,AL,South East
308,36025,14.42,AL,South East
309,36026,73.69,AL,South East
310,36027,288.85,AL,South East
311,36028,128.88,AL,South East
312,36029,102.31,AL,South East
313,36030,68.21,AL,South East
314,36032,111.1,AL,South East
315,36033,234.58,AL,South East
316,36034,58.21,AL,South East
317,36035,109.03,AL,South East
318,36036,104.46,AL,South East
319,36037,360.55,AL,South East
320,36039,38.03,AL,South East
321,36040,154.9,AL,South East
322,36041,53.11,AL,South East
323,36042,81.39,AL,South East
324,36043,102.79,AL,South East
325,36046,68.67,AL,South East
326,36047,110.55,AL,South East
327,36048,105.57,AL,South East
328,36049,159.83,AL,South East
329,36051,50.78,AL,South East
330,36052,62.51,AL,South East
331,36053,290.6,AL,South East
332,36054,24.35,AL,South East
333,36064,80.8,AL,South East
334,36066,19.87,AL,South East
335,36067,239.23,AL,South East
336,36069,148.96,AL,South East
337,36071,46.96,AL,South East
338,36075,91.5,AL,South East
339,36078,172.32,AL,South East
340,36079,199.15,AL,South East
341,36080,54.12,AL,South East
342,36081,217.33,AL,South East
343,36083,254.77,AL,South East
344,36088,3.35,AL,South East
345,36089,328.89,AL,South East
346,36091,81.8,AL,South East
347,36092,130.8,AL,South East
348,36093,81.52,AL,South East
349,36104,12.54,AL,South East
350,36105,73.45,AL,South East
351,36106,6.08,AL,South East
352,36107,3.23,AL,South East
353,36108,69.58,AL,South East
354,36109,11.59,AL,South East
355,36110,29.63,AL,South East
356,36111,4.3,AL,South East
357,36112,85.96760344827581,AL,South East
358,36113,85.96760344827581,AL,South East
359,36114,85.96760344827581,AL,South East
360,36115,85.96760344827581,AL,South East
361,36116,56.07,AL,South East
362,36117,54.29,AL,South East
363,36119,85.96760344827581,AL,South East
364,36201,37.29,AL,South East
365,36203,38.27,AL,South East
366,36205,4.31,AL,South East
367,36206,15.97,AL,South East
368,36207,73.85,AL,South East
369,36250,17.64,AL,South East
370,36251,144.45,AL,South East
371,36255,68.65,AL,South East
372,36256,94.85,AL,South East
373,36258,112.61,AL,South East
374,36260,27.14,AL,South East
375,36262,89.5,AL,South East
376,36263,24.63,AL,South East
377,36264,235.8,AL,South East
378,36265,99.48,AL,South East
379,36266,178.62,AL,South East
380,36268,93.86,AL,South East
381,36269,44.67,AL,South East
382,36271,82.05,AL,South East
383,36272,337.08,AL,South East
384,36273,52.15,AL,South East
385,36274,182.67,AL,South East
386,36276,134.19,AL,South East
387,36277,8.41,AL,South East
388,36278,132.93,AL,South East
389,36279,29.7,AL,South East
390,36280,123.5,AL,South East
391,36301,89.27,AL,South East
392,36303,62.81,AL,South East
393,36305,31.78,AL,South East
394,36310,215.5,AL,South East
395,36311,119.76,AL,South East
396,36312,77.0,AL,South East
397,36314,23.59,AL,South East
398,36316,49.94,AL,South East
399,36317,40.61,AL,South East
400,36318,48.48,AL,South East
401,36319,100.2,AL,South East
402,36320,65.9,AL,South East
403,36321,6.9,AL,South East
404,36322,62.51,AL,South East
405,36323,231.3,AL,South East
406,36330,120.19,AL,South East
407,36340,47.44,AL,South East
408,36343,100.63,AL,South East
409,36344,128.55,AL,South East
410,36345,122.86,AL,South East
411,36346,50.23,AL,South East
412,36350,64.22,AL,South East
413,36351,81.13,AL,South East
414,36352,70.86,AL,South East
415,36353,96.45,AL,South East
416,36360,180.84,AL,South East
417,36362,85.96760344827581,AL,South East
418,36370,28.26,AL,South East
419,36373,62.16,AL,South East
420,36374,54.21,AL,South East
421,36375,121.77,AL,South East
422,36376,22.61,AL,South East
423,36401,456.85,AL,South East
424,36420,265.93,AL,South East
425,36421,206.91,AL,South East
426,36425,150.13,AL,South East
427,36426,485.94,AL,South East
428,36432,142.7,AL,South East
429,36435,43.56,AL,South East
430,36436,33.23,AL,South East
431,36441,58.67,AL,South East
432,36442,204.08,AL,South East
433,36444,105.72,AL,South East
434,36445,154.04,AL,South East
435,36451,191.78,AL,South East
436,36453,92.67,AL,South East
437,36454,85.96760344827581,AL,South East
438,36456,123.97,AL,South East
439,36460,138.24,AL,South East
440,36467,165.55,AL,South East
441,36471,99.28,AL,South East
442,36473,6.11,AL,South East
443,36474,183.52,AL,South East
444,36475,164.44,AL,South East
445,36477,169.29,AL,South East
446,36480,162.08,AL,South East
447,36481,58.0,AL,South East
448,36482,123.27,AL,South East
449,36483,103.49,AL,South East
450,36501,85.96760344827581,AL,South East
451,36502,328.21,AL,South East
452,36505,21.6,AL,South East
453,36507,334.81,AL,South East
454,36509,6.54,AL,South East
455,36511,4.67,AL,South East
456,36515,85.96760344827581,AL,South East
457,36518,135.24,AL,South East
458,36521,144.46,AL,South East
459,36522,220.07,AL,South East
460,36523,38.3,AL,South East
461,36524,167.23,AL,South East
462,36525,16.75,AL,South East
463,36526,37.4,AL,South East
464,36527,41.13,AL,South East
465,36528,6.37,AL,South East
466,36529,60.45,AL,South East
467,36530,96.62,AL,South East
468,36532,73.74,AL,South East
469,36535,91.48,AL,South East
470,36538,34.46,AL,South East
471,36539,71.22,AL,South East
472,36540,44.2,AL,South East
473,36541,95.63,AL,South East
474,36542,52.49,AL,South East
475,36544,40.08,AL,South East
476,36545,397.6,AL,South East
477,36548,34.6,AL,South East
478,36549,27.91,AL,South East
479,36550,53.93,AL,South East
480,36551,65.0,AL,South East
481,36553,110.24,AL,South East
482,36555,0.84,AL,South East
483,36558,244.77,AL,South East
484,36560,70.19,AL,South East
485,36561,16.2,AL,South East
486,36562,44.59,AL,South East
487,36567,228.46,AL,South East
488,36569,61.83,AL,South East
489,36571,45.63,AL,South East
490,36572,9.28,AL,South East
491,36574,14.01,AL,South East
492,36575,42.0,AL,South East
493,36576,19.45,AL,South East
494,36578,30.61,AL,South East
495,36579,131.32,AL,South East
496,36580,53.76,AL,South East
497,36581,51.71,AL,South East
498,36582,80.3,AL,South East
499,36583,64.19,AL,South East
500,36584,68.78,AL,South East
501,36585,82.97,AL,South East
502,36587,121.93,AL,South East
503,36602,0.91,AL,South East
504,36603,6.43,AL,South East
505,36604,2.64,AL,South East
506,36605,18.25,AL,South East
507,36606,6.56,AL,South East
508,36607,3.2,AL,South East
509,36608,62.56,AL,South East
510,36609,7.04,AL,South East
511,36610,8.0,AL,South East
512,36611,4.75,AL,South East
513,36612,2.8,AL,South East
514,36613,51.25,AL,South East
515,36615,85.96760344827581,AL,South East
516,36617,4.75,AL,South East
517,36618,16.13,AL,South East
518,36619,17.18,AL,South East
519,36693,12.6,AL,South East
520,36695,47.75,AL,South East
521,36701,259.77,AL,South East
522,36703,120.77,AL,South East
523,36720,49.84,AL,South East
524,36721,85.96760344827581,AL,South East
525,36722,32.21,AL,South East
526,36726,262.26,AL,South East
527,36727,61.39,AL,South East
528,36728,90.43,AL,South East
529,36732,127.98,AL,South East
530,36736,41.1,AL,South East
531,36738,72.24,AL,South East
532,36740,73.23,AL,South East
533,36742,113.74,AL,South East
534,36744,229.0,AL,South East
535,36748,153.66,AL,South East
536,36749,61.91,AL,South East
537,36750,114.35,AL,South East
538,36751,93.79,AL,South East
539,36752,149.46,AL,South East
540,36754,40.19,AL,South East
541,36756,414.2,AL,South East
542,36758,87.41,AL,South East
543,36759,191.67,AL,South East
544,36761,257.45,AL,South East
545,36762,85.96760344827581,AL,South East
546,36765,73.53,AL,South East
547,36767,117.78,AL,South East
548,36768,241.01,AL,South East
549,36769,146.51,AL,South East
550,36773,97.36,AL,South East
551,36775,92.81,AL,South East
552,36776,81.28,AL,South East
553,36782,202.38,AL,South East
554,36783,117.58,AL,South East
555,36784,270.75,AL,South East
556,36785,126.34,AL,South East
557,36786,137.69,AL,South East
558,36790,5.04,AL,South East
559,36792,56.26,AL,South East
560,36793,75.73,AL,South East
561,36801,71.59,AL,South East
562,36804,193.06,AL,South East
563,36830,99.74,AL,South East
564,36832,70.87,AL,South East
565,36850,147.73,AL,South East
566,36852,35.14,AL,South East
567,36853,181.45,AL,South East
568,36854,58.87,AL,South East
569,36855,72.06,AL,South East
570,36856,33.11,AL,South East
571,36858,54.42,AL,South East
572,36860,152.21,AL,South East
573,36861,49.31,AL,South East
574,36862,239.66,AL,South East
575,36863,87.92,AL,South East
576,36866,89.07,AL,South East
577,36867,12.99,AL,South East
578,36869,74.78,AL,South East
579,36870,24.29,AL,South East
580,36871,147.39,AL,South East
581,36874,111.39,AL,South East
582,36875,140.21,AL,South East
583,36877,41.24,AL,South East
584,36879,88.01,AL,South East
585,36904,226.94,AL,South East
586,36907,124.65,AL,South East
587,36908,131.25,AL,South East
588,36910,85.96760344827581,AL,South East
589,36912,139.93,AL,South East
590,36913,9.31,AL,South East
591,36915,37.15,AL,South East
592,36916,29.77,AL,South East
593,36919,161.3,AL,South East
594,36921,100.08,AL,South East
595,36922,107.17,AL,South East
596,36925,136.05,AL,South East
0,71601,109.96,AR,South
1,71602,116.03,AR,South
2,71603,177.27,AR,South
3,71631,123.11,AR,South
4,71635,216.23,AR,South
5,71638,232.02,AR,South
6,71639,181.57,AR,South
7,71640,196.01,AR,South
8,71642,53.19,AR,South
9,71643,108.84,AR,South
10,71644,74.74,AR,South
11,71646,390.75,AR,South
12,71647,251.92,AR,South
13,71651,84.13,AR,South
14,71652,167.34,AR,South
15,71653,315.33,AR,South
16,71654,70.63,AR,South
17,71655,361.57,AR,South
18,71658,112.68,AR,South
19,71660,120.32,AR,South
20,71661,95.25,AR,South
21,71662,98.20737254901967,AR,South
22,71663,77.23,AR,South
23,71665,281.63,AR,South
24,71667,314.66,AR,South
25,71670,204.23,AR,South
26,71671,184.52,AR,South
27,71674,243.36,AR,South
28,71675,169.43,AR,South
29,71676,105.25,AR,South
30,71701,285.84,AR,South
31,71720,149.38,AR,South
32,71722,17.94,AR,South
33,71725,142.85,AR,South
34,71726,193.11,AR,South
35,71730,457.02,AR,South
36,71740,184.5,AR,South
37,71742,182.44,AR,South
38,71743,206.38,AR,South
39,71744,399.08,AR,South
40,71747,80.12,AR,South
41,71749,165.2,AR,South
42,71751,78.46,AR,South
43,71752,38.02,AR,South
44,71753,318.47,AR,South
45,71758,69.46,AR,South
46,71762,57.14,AR,South
47,71763,225.38,AR,South
48,71764,182.95,AR,South
49,71765,198.3,AR,South
50,71766,72.96,AR,South
51,71768,98.20737254901967,AR,South
52,71770,147.73,AR,South
53,71801,301.82,AR,South
54,71822,254.09,AR,South
55,71825,24.47,AR,South
56,71826,127.8,AR,South
57,71827,57.33,AR,South
58,71831,98.20737254901967,AR,South
59,71832,176.59,AR,South
60,71833,159.16,AR,South
61,71834,148.67,AR,South
62,71835,82.23,AR,South
63,71836,169.27,AR,South
64,71837,159.06,AR,South
65,71838,127.78,AR,South
66,71839,38.79,AR,South
67,71841,68.95,AR,South
68,71842,77.08,AR,South
69,71845,210.7,AR,South
70,71846,216.03,AR,South
71,71847,57.26,AR,South
72,71851,84.28,AR,South
73,71852,270.94,AR,South
74,71853,31.53,AR,South
75,71854,278.45,AR,South
76,71855,54.93,AR,South
77,71857,269.61,AR,South
78,71858,200.11,AR,South
79,71859,21.59,AR,South
80,71860,108.85,AR,South
81,71861,139.8,AR,South
82,71862,64.79,AR,South
83,71866,44.25,AR,South
84,71901,103.25,AR,South
85,71909,81.07,AR,South
86,71913,126.69,AR,South
87,71920,98.20737254901967,AR,South
88,71921,198.05,AR,South
89,71923,395.45,AR,South
90,71929,95.46,AR,South
91,71933,95.16,AR,South
92,71935,117.11,AR,South
93,71937,69.79,AR,South
94,71940,107.93,AR,South
95,71941,74.9,AR,South
96,71943,112.2,AR,South
97,71944,42.09,AR,South
98,71945,71.65,AR,South
99,71949,207.94,AR,South
100,71950,36.93,AR,South
101,71951,98.20737254901967,AR,South
102,71952,26.3,AR,South
103,71953,639.25,AR,South
104,71956,23.19,AR,South
105,71957,139.94,AR,South
106,71958,107.62,AR,South
107,71959,61.23,AR,South
108,71960,151.61,AR,South
109,71961,87.3,AR,South
110,71962,165.57,AR,South
111,71964,34.43,AR,South
112,71965,21.82,AR,South
113,71968,98.28,AR,South
114,71969,33.14,AR,South
115,71970,77.17,AR,South
116,71971,66.24,AR,South
117,71972,29.26,AR,South
118,71973,78.87,AR,South
119,72001,25.41,AR,South
120,72002,57.42,AR,South
121,72003,99.7,AR,South
122,72004,156.67,AR,South
123,72005,20.43,AR,South
124,72006,191.96,AR,South
125,72007,43.83,AR,South
126,72010,135.84,AR,South
127,72011,56.34,AR,South
128,72012,91.28,AR,South
129,72013,97.81,AR,South
130,72015,81.87,AR,South
131,72016,81.24,AR,South
132,72017,50.48,AR,South
133,72019,164.62,AR,South
134,72020,172.84,AR,South
135,72021,180.66,AR,South
136,72022,15.23,AR,South
137,72023,94.22,AR,South
138,72024,201.86,AR,South
139,72025,58.68,AR,South
140,72026,29.62,AR,South
141,72027,67.99,AR,South
142,72029,50.6,AR,South
143,72030,52.5,AR,South
144,72031,297.22,AR,South
145,72032,114.12,AR,South
146,72034,56.15,AR,South
147,72036,117.22,AR,South
148,72038,20.38,AR,South
149,72039,58.47,AR,South
150,72040,172.07,AR,South
151,72041,96.78,AR,South
152,72042,236.89,AR,South
153,72044,61.75,AR,South
154,72045,44.62,AR,South
155,72046,233.86,AR,South
156,72047,31.45,AR,South
157,72048,83.3,AR,South
158,72051,41.87,AR,South
159,72055,91.84,AR,South
160,72057,89.57,AR,South
161,72058,156.12,AR,South
162,72060,64.18,AR,South
163,72061,3.43,AR,South
164,72063,79.73,AR,South
165,72064,150.95,AR,South
166,72065,57.22,AR,South
167,72067,48.66,AR,South
168,72068,0.96,AR,South
169,72069,233.55,AR,South
170,72070,67.39,AR,South
171,72072,36.56,AR,South
172,72073,136.49,AR,South
173,72076,74.06,AR,South
174,72079,23.41,AR,South
175,72080,94.88,AR,South
176,72081,93.21,AR,South
177,72082,5.32,AR,South
178,72084,197.86,AR,South
179,72086,145.2,AR,South
180,72087,76.68,AR,South
181,72088,14.75,AR,South
182,72101,259.37,AR,South
183,72102,50.6,AR,South
184,72103,30.76,AR,South
185,72104,317.68,AR,South
186,72106,45.89,AR,South
187,72110,124.07,AR,South
188,72111,58.57,AR,South
189,72112,328.37,AR,South
190,72113,26.19,AR,South
191,72114,7.99,AR,South
192,72116,6.69,AR,South
193,72117,55.4,AR,South
194,72118,28.76,AR,South
195,72120,50.26,AR,South
196,72121,71.46,AR,South
197,72122,104.24,AR,South
198,72125,21.7,AR,South
199,72126,202.87,AR,South
200,72127,53.08,AR,South
201,72128,22.51,AR,South
202,72129,47.96,AR,South
203,72130,32.62,AR,South
204,72131,130.87,AR,South
205,72132,60.87,AR,South
206,72134,48.5,AR,South
207,72135,71.0,AR,South
208,72136,51.21,AR,South
209,72137,68.19,AR,South
210,72140,19.14,AR,South
211,72141,83.67,AR,South
212,72142,104.04,AR,South
213,72143,304.63,AR,South
214,72150,293.45,AR,South
215,72152,73.44,AR,South
216,72153,84.48,AR,South
217,72156,25.64,AR,South
218,72157,51.1,AR,South
219,72160,336.04,AR,South
220,72165,98.20737254901967,AR,South
221,72166,101.9,AR,South
222,72167,44.82,AR,South
223,72168,45.19,AR,South
224,72173,95.85,AR,South
225,72175,45.62,AR,South
226,72176,79.33,AR,South
227,72179,23.38,AR,South
228,72181,1.26,AR,South
229,72198,98.20737254901967,AR,South
230,72201,1.21,AR,South
231,72202,8.68,AR,South
232,72204,15.45,AR,South
233,72205,7.82,AR,South
234,72206,114.12,AR,South
235,72207,3.05,AR,South
236,72209,16.48,AR,South
237,72210,50.56,AR,South
238,72211,7.53,AR,South
239,72212,6.62,AR,South
240,72223,59.9,AR,South
241,72227,3.77,AR,South
242,72301,18.89,AR,South
243,72315,251.88,AR,South
244,72320,98.20737254901967,AR,South
245,72324,126.41,AR,South
246,72326,83.22,AR,South
247,72327,102.02,AR,South
248,72330,41.05,AR,South
249,72331,143.03,AR,South
250,72333,62.12,AR,South
251,72335,159.38,AR,South
252,72338,98.20737254901967,AR,South
253,72342,89.28,AR,South
254,72346,82.08,AR,South
255,72347,94.63,AR,South
256,72348,164.08,AR,South
257,72350,77.47,AR,South
258,72354,50.4,AR,South
259,72355,104.4,AR,South
260,72358,59.07,AR,South
261,72360,324.42,AR,South
262,72364,72.52,AR,South
263,72365,51.21,AR,South
264,72366,146.29,AR,South
265,72368,141.53,AR,South
266,72370,113.15,AR,South
267,72372,126.13,AR,South
268,72373,112.7,AR,South
269,72374,41.96,AR,South
270,72376,85.67,AR,South
271,72384,92.46,AR,South
272,72386,117.05,AR,South
273,72390,36.71,AR,South
274,72392,47.01,AR,South
275,72394,82.37,AR,South
276,72395,24.22,AR,South
277,72396,267.71,AR,South
278,72401,117.22,AR,South
279,72404,126.03,AR,South
280,72405,98.20737254901967,AR,South
281,72410,69.45,AR,South
282,72411,38.39,AR,South
283,72412,62.73,AR,South
284,72413,37.48,AR,South
285,72414,17.27,AR,South
286,72415,37.99,AR,South
287,72416,92.94,AR,South
288,72417,45.74,AR,South
289,72419,50.87,AR,South
290,72421,75.96,AR,South
291,72422,175.32,AR,South
292,72425,69.73,AR,South
293,72428,6.32,AR,South
294,72429,76.98,AR,South
295,72430,26.39,AR,South
296,72432,158.68,AR,South
297,72433,56.0,AR,South
298,72434,85.23,AR,South
299,72435,73.0,AR,South
300,72436,29.09,AR,South
301,72437,106.5,AR,South
302,72438,55.81,AR,South
303,72439,98.20737254901967,AR,South
304,72440,5.96,AR,South
305,72442,112.47,AR,South
306,72443,58.54,AR,South
307,72444,96.26,AR,South
308,72447,55.86,AR,South
309,72450,287.01,AR,South
310,72453,27.91,AR,South
311,72454,101.76,AR,South
312,72455,283.42,AR,South
313,72456,46.32,AR,South
314,72458,26.11,AR,South
315,72459,99.44,AR,South
316,72460,59.76,AR,South
317,72461,181.33,AR,South
318,72466,123.46,AR,South
319,72469,76.87,AR,South
320,72470,33.69,AR,South
321,72471,84.03,AR,South
322,72472,176.1,AR,South
323,72473,57.77,AR,South
324,72476,199.67,AR,South
325,72478,51.04,AR,South
326,72479,196.17,AR,South
327,72482,68.71,AR,South
328,72501,303.53,AR,South
329,72512,21.86,AR,South
330,72513,94.33,AR,South
331,72515,98.20737254901967,AR,South
332,72517,34.27,AR,South
333,72519,148.8,AR,South
334,72520,25.5,AR,South
335,72521,125.58,AR,South
336,72522,5.88,AR,South
337,72523,39.89,AR,South
338,72524,56.09,AR,South
339,72527,3.96,AR,South
340,72528,98.20737254901967,AR,South
341,72529,19.61,AR,South
342,72530,111.71,AR,South
343,72531,57.26,AR,South
344,72532,103.74,AR,South
345,72533,42.99,AR,South
346,72534,61.83,AR,South
347,72536,25.4,AR,South
348,72537,28.66,AR,South
349,72538,46.55,AR,South
350,72539,16.51,AR,South
351,72540,18.53,AR,South
352,72542,158.61,AR,South
353,72543,113.32,AR,South
354,72544,27.61,AR,South
355,72546,3.88,AR,South
356,72550,46.03,AR,South
357,72554,154.15,AR,South
358,72555,13.37,AR,South
359,72556,153.71,AR,South
360,72560,326.04,AR,South
361,72561,51.1,AR,South
362,72562,82.51,AR,South
363,72564,29.48,AR,South
364,72565,38.27,AR,South
365,72566,47.01,AR,South
366,72567,11.57,AR,South
367,72568,46.56,AR,South
368,72569,41.51,AR,South
369,72571,98.20737254901967,AR,South
370,72572,14.21,AR,South
371,72573,14.74,AR,South
372,72576,159.84,AR,South
373,72577,42.13,AR,South
374,72578,21.41,AR,South
375,72579,37.71,AR,South
376,72581,11.03,AR,South
377,72583,99.05,AR,South
378,72584,31.78,AR,South
379,72585,98.20737254901967,AR,South
380,72587,10.43,AR,South
381,72601,369.17,AR,South
382,72611,76.36,AR,South
383,72616,209.74,AR,South
384,72617,37.7,AR,South
385,72619,4.64,AR,South
386,72623,25.13,AR,South
387,72624,68.07,AR,South
388,72626,5.64,AR,South
389,72628,112.89,AR,South
390,72629,43.69,AR,South
391,72631,47.73,AR,South
392,72632,99.26,AR,South
393,72633,94.53,AR,South
394,72634,128.3,AR,South
395,72635,29.17,AR,South
396,72638,187.64,AR,South
397,72639,63.83,AR,South
398,72640,22.23,AR,South
399,72641,137.72,AR,South
400,72642,8.57,AR,South
401,72644,85.71,AR,South
402,72645,172.36,AR,South
403,72648,44.68,AR,South
404,72650,268.28,AR,South
405,72651,7.39,AR,South
406,72653,221.82,AR,South
407,72655,94.76,AR,South
408,72657,98.20737254901967,AR,South
409,72658,74.57,AR,South
410,72659,98.20737254901967,AR,South
411,72660,17.16,AR,South
412,72661,25.73,AR,South
413,72662,117.39,AR,South
414,72663,22.68,AR,South
415,72666,17.9,AR,South
416,72668,27.98,AR,South
417,72670,16.85,AR,South
418,72675,172.73,AR,South
419,72679,98.20737254901967,AR,South
420,72680,37.25,AR,South
421,72682,14.36,AR,South
422,72683,10.3,AR,South
423,72685,51.18,AR,South
424,72686,98.20737254901967,AR,South
425,72687,279.6,AR,South
426,72701,126.56,AR,South
427,72703,44.68,AR,South
428,72704,76.03,AR,South
429,72712,99.99,AR,South
430,72713,98.20737254901967,AR,South
431,72714,18.95,AR,South
432,72715,28.54,AR,South
433,72717,44.63,AR,South
434,72718,6.47,AR,South
435,72719,8.51,AR,South
436,72721,44.38,AR,South
437,72722,42.37,AR,South
438,72727,155.43,AR,South
439,72729,12.23,AR,South
440,72730,20.7,AR,South
441,72732,85.13,AR,South
442,72734,81.57,AR,South
443,72736,88.64,AR,South
444,72738,85.34,AR,South
445,72739,5.14,AR,South
446,72740,368.98,AR,South
447,72742,75.09,AR,South
448,72744,79.02,AR,South
449,72745,32.98,AR,South
450,72747,5.58,AR,South
451,72749,1.32,AR,South
452,72751,24.84,AR,South
453,72752,119.24,AR,South
454,72753,89.55,AR,South
455,72756,139.33,AR,South
456,72758,30.41,AR,South
457,72760,35.01,AR,South
458,72761,114.04,AR,South
459,72762,59.89,AR,South
460,72764,62.27,AR,South
461,72768,37.69,AR,South
462,72769,40.69,AR,South
463,72773,30.98,AR,South
464,72774,116.82,AR,South
465,72776,61.44,AR,South
466,72801,8.13,AR,South
467,72802,134.56,AR,South
468,72821,36.71,AR,South
469,72823,117.69,AR,South
470,72824,80.72,AR,South
471,72827,39.01,AR,South
472,72828,98.20737254901967,AR,South
473,72830,131.26,AR,South
474,72832,8.25,AR,South
475,72833,180.58,AR,South
476,72834,155.96,AR,South
477,72835,51.35,AR,South
478,72837,233.14,AR,South
479,72838,18.5,AR,South
480,72839,149.26,AR,South
481,72840,52.32,AR,South
482,72841,51.51,AR,South
483,72842,94.15,AR,South
484,72843,211.73,AR,South
485,72845,11.55,AR,South
486,72846,96.27,AR,South
487,72847,43.36,AR,South
488,72851,46.56,AR,South
489,72852,84.74,AR,South
490,72853,60.55,AR,South
491,72854,144.3,AR,South
492,72855,180.79,AR,South
493,72856,129.69,AR,South
494,72857,325.59,AR,South
495,72858,25.12,AR,South
496,72860,35.38,AR,South
497,72863,51.83,AR,South
498,72865,28.01,AR,South
499,72901,8.78,AR,South
500,72903,16.76,AR,South
501,72904,13.12,AR,South
502,72908,8.11,AR,South
503,72916,34.61,AR,South
504,72921,85.87,AR,South
505,72923,7.51,AR,South
506,72926,82.92,AR,South
507,72927,310.38,AR,South
508,72928,23.36,AR,South
509,72930,28.71,AR,South
510,72932,18.78,AR,South
511,72933,114.06,AR,South
512,72934,68.86,AR,South
513,72936,87.76,AR,South
514,72937,64.7,AR,South
515,72938,50.12,AR,South
516,72940,44.1,AR,South
517,72941,53.79,AR,South
518,72943,98.72,AR,South
519,72944,79.09,AR,South
520,72946,96.08,AR,South
521,72947,126.71,AR,South
522,72948,61.64,AR,South
523,72949,341.39,AR,South
524,72950,134.91,AR,South
525,72951,16.71,AR,South
526,72952,51.08,AR,South
527,72955,12.43,AR,South
528,72956,105.4,AR,South
529,72958,347.8,AR,South
530,72959,178.79,AR,South
0,46001,73.84,IN,South
1,46011,74.75,IN,South
2,46012,32.49,IN,South
3,46013,21.62,IN,South
4,46016,6.37,IN,South
5,46017,17.31,IN,South
6,46030,37.35,IN,South
7,46031,47.13,IN,South
8,46032,25.81,IN,South
9,46033,17.14,IN,South
10,46034,28.81,IN,South
11,46035,24.03,IN,South
12,46036,78.63,IN,South
13,46037,18.92,IN,South
14,46038,15.79,IN,South
15,46039,27.07,IN,South
16,46040,33.28,IN,South
17,46041,251.44,IN,South
18,46044,21.88,IN,South
19,46048,1.35,IN,South
20,46049,26.91,IN,South
21,46050,45.77,IN,South
22,46051,15.83,IN,South
23,46052,177.96,IN,South
24,46055,25.97,IN,South
25,46056,23.18,IN,South
26,46057,24.92,IN,South
27,46058,26.74,IN,South
28,46060,79.86,IN,South
29,46062,34.07,IN,South
30,46064,65.01,IN,South
31,46065,38.1,IN,South
32,46068,45.27,IN,South
33,46069,90.89,IN,South
34,46070,45.39,IN,South
35,46071,69.36,IN,South
36,46072,112.69,IN,South
37,46074,36.1,IN,South
38,46075,30.87,IN,South
39,46076,44.39,IN,South
40,46077,43.61,IN,South
41,46104,28.01,IN,South
42,46105,42.17,IN,South
43,46106,27.21,IN,South
44,46107,3.24,IN,South
45,46110,14.54,IN,South
46,46112,40.05,IN,South
47,46113,16.4,IN,South
48,46115,36.97,IN,South
49,46117,11.79,IN,South
50,46118,54.55,IN,South
51,46120,91.83,IN,South
52,46121,54.43,IN,South
53,46122,88.14,IN,South
54,46123,30.64,IN,South
55,46124,61.62,IN,South
56,46126,32.7,IN,South
57,46127,23.64,IN,South
58,46128,35.02,IN,South
59,46130,29.77,IN,South
60,46131,125.13,IN,South
61,46133,24.56,IN,South
62,46135,166.54,IN,South
63,46140,169.48,IN,South
64,46142,14.97,IN,South
65,46143,48.81,IN,South
66,46146,0.78,IN,South
67,46147,58.95,IN,South
68,46148,51.06,IN,South
69,46149,26.24,IN,South
70,46150,24.67,IN,South
71,46151,204.87,IN,South
72,46156,40.85,IN,South
73,46157,31.88,IN,South
74,46158,75.32,IN,South
75,46160,92.42,IN,South
76,46161,36.38,IN,South
77,46162,11.23,IN,South
78,46163,29.5,IN,South
79,46164,23.49,IN,South
80,46165,40.09,IN,South
81,46166,34.9,IN,South
82,46167,30.01,IN,South
83,46168,32.25,IN,South
84,46170,51.95588321167885,IN,South
85,46171,36.34,IN,South
86,46172,67.51,IN,South
87,46173,225.78,IN,South
88,46175,22.27,IN,South
89,46176,172.14,IN,South
90,46180,25.63,IN,South
91,46181,44.87,IN,South
92,46182,35.28,IN,South
93,46184,20.47,IN,South
94,46186,28.32,IN,South
95,46201,5.59,IN,South
96,46202,5.58,IN,South
97,46203,13.88,IN,South
98,46204,1.12,IN,South
99,46205,6.26,IN,South
100,46208,6.71,IN,South
101,46214,7.11,IN,South
102,46216,3.49,IN,South
103,46217,21.47,IN,South
104,46218,9.44,IN,South
105,46219,12.9,IN,South
106,46220,12.04,IN,South
107,46221,19.81,IN,South
108,46222,11.16,IN,South
109,46224,7.17,IN,South
110,46225,4.04,IN,South
111,46226,14.41,IN,South
112,46227,16.75,IN,South
113,46228,8.01,IN,South
114,46229,10.86,IN,South
115,46231,12.32,IN,South
116,46234,12.74,IN,South
117,46235,9.65,IN,South
118,46236,10.52,IN,South
119,46237,14.86,IN,South
120,46239,29.05,IN,South
121,46240,9.78,IN,South
122,46241,22.4,IN,South
123,46250,7.61,IN,South
124,46254,13.66,IN,South
125,46256,11.19,IN,South
126,46259,21.45,IN,South
127,46260,10.16,IN,South
128,46268,13.29,IN,South
129,46278,13.05,IN,South
130,46280,4.27,IN,South
131,46282,51.95588321167885,IN,South
132,46290,0.54,IN,South
133,46303,27.56,IN,South
134,46304,53.65,IN,South
135,46307,87.66,IN,South
136,46310,66.91,IN,South
137,46311,13.56,IN,South
138,46312,14.01,IN,South
139,46319,9.27,IN,South
140,46320,6.69,IN,South
141,46321,7.57,IN,South
142,46322,6.9,IN,South
143,46323,6.2,IN,South
144,46324,4.41,IN,South
145,46327,4.13,IN,South
146,46340,32.91,IN,South
147,46341,90.28,IN,South
148,46342,35.22,IN,South
149,46347,71.63,IN,South
150,46348,51.31,IN,South
151,46349,84.11,IN,South
152,46350,194.22,IN,South
153,46356,118.06,IN,South
154,46360,77.32,IN,South
155,46365,23.27,IN,South
156,46366,79.52,IN,South
157,46368,26.32,IN,South
158,46371,37.87,IN,South
159,46373,10.11,IN,South
160,46374,36.28,IN,South
161,46375,13.55,IN,South
162,46381,0.91,IN,South
163,46382,48.76,IN,South
164,46383,87.23,IN,South
165,46385,81.31,IN,South
166,46390,49.14,IN,South
167,46391,40.26,IN,South
168,46392,109.48,IN,South
169,46394,3.26,IN,South
170,46402,3.8,IN,South
171,46403,8.28,IN,South
172,46404,5.72,IN,South
173,46405,8.68,IN,South
174,46406,13.03,IN,South
175,46407,4.23,IN,South
176,46408,9.75,IN,South
177,46409,3.57,IN,South
178,46410,29.52,IN,South
179,46501,70.01,IN,South
180,46504,65.54,IN,South
181,46506,99.55,IN,South
182,46507,40.14,IN,South
183,46508,0.93,IN,South
184,46510,67.03,IN,South
185,46511,66.86,IN,South
186,46514,38.51,IN,South
187,46516,17.75,IN,South
188,46517,36.8,IN,South
189,46524,34.09,IN,South
190,46526,67.06,IN,South
191,46528,70.95,IN,South
192,46530,24.93,IN,South
193,46531,21.42,IN,South
194,46532,52.79,IN,South
195,46534,121.66,IN,South
196,46536,29.03,IN,South
197,46538,30.75,IN,South
198,46539,31.95,IN,South
199,46540,61.11,IN,South
200,46542,51.74,IN,South
201,46543,30.17,IN,South
202,46544,40.05,IN,South
203,46545,17.79,IN,South
204,46550,74.66,IN,South
205,46552,62.45,IN,South
206,46553,31.36,IN,South
207,46554,70.52,IN,South
208,46555,9.26,IN,South
209,46561,14.5,IN,South
210,46562,60.66,IN,South
211,46563,152.24,IN,South
212,46565,63.73,IN,South
213,46567,55.59,IN,South
214,46570,20.44,IN,South
215,46571,43.13,IN,South
216,46572,51.95588321167885,IN,South
217,46573,34.16,IN,South
218,46574,94.12,IN,South
219,46580,72.93,IN,South
220,46582,56.75,IN,South
221,46590,2.83,IN,South
222,46601,2.17,IN,South
223,46613,2.86,IN,South
224,46614,52.91,IN,South
225,46615,3.27,IN,South
226,46616,1.47,IN,South
227,46617,2.6,IN,South
228,46619,22.8,IN,South
229,46628,35.01,IN,South
230,46635,3.13,IN,South
231,46637,9.65,IN,South
232,46701,96.44,IN,South
233,46702,45.47,IN,South
234,46703,117.3,IN,South
235,46705,19.89,IN,South
236,46706,86.28,IN,South
237,46710,43.82,IN,South
238,46711,59.72,IN,South
239,46714,128.84,IN,South
240,46721,80.39,IN,South
241,46723,62.42,IN,South
242,46725,205.23,IN,South
243,46730,28.03,IN,South
244,46731,15.91,IN,South
245,46732,22.69,IN,South
246,46733,172.5,IN,South
247,46737,65.1,IN,South
248,46738,26.12,IN,South
249,46740,61.59,IN,South
250,46741,25.99,IN,South
251,46742,51.06,IN,South
252,46743,22.41,IN,South
253,46745,19.66,IN,South
254,46746,73.55,IN,South
255,46747,36.65,IN,South
256,46748,18.35,IN,South
257,46750,199.19,IN,South
258,46755,75.43,IN,South
259,46759,29.61,IN,South
260,46760,25.14,IN,South
261,46761,123.43,IN,South
262,46763,22.43,IN,South
263,46764,34.17,IN,South
264,46765,12.98,IN,South
265,46766,20.26,IN,South
266,46767,69.76,IN,South
267,46770,52.81,IN,South
268,46772,35.45,IN,South
269,46773,78.77,IN,South
270,46774,51.07,IN,South
271,46776,23.38,IN,South
272,46777,55.34,IN,South
273,46779,35.41,IN,South
274,46781,25.63,IN,South
275,46783,60.21,IN,South
276,46784,13.31,IN,South
277,46785,24.39,IN,South
278,46787,64.29,IN,South
279,46788,35.52,IN,South
280,46791,15.2,IN,South
281,46792,100.69,IN,South
282,46793,55.69,IN,South
283,46794,25.73,IN,South
284,46795,55.47,IN,South
285,46797,51.51,IN,South
286,46798,20.6,IN,South
287,46802,4.23,IN,South
288,46803,6.6,IN,South
289,46804,19.37,IN,South
290,46805,6.45,IN,South
291,46806,9.19,IN,South
292,46807,3.21,IN,South
293,46808,10.71,IN,South
294,46809,22.78,IN,South
295,46814,17.03,IN,South
296,46815,10.43,IN,South
297,46816,36.53,IN,South
298,46818,66.12,IN,South
299,46819,25.61,IN,South
300,46825,15.34,IN,South
301,46835,21.18,IN,South
302,46845,22.73,IN,South
303,46901,138.66,IN,South
304,46902,53.37,IN,South
305,46910,61.91,IN,South
306,46911,39.66,IN,South
307,46913,32.9,IN,South
308,46914,28.8,IN,South
309,46915,2.37,IN,South
310,46917,53.85,IN,South
311,46919,42.17,IN,South
312,46920,31.47,IN,South
313,46923,134.73,IN,South
314,46926,35.16,IN,South
315,46928,72.41,IN,South
316,46929,51.28,IN,South
317,46930,0.14,IN,South
318,46932,55.28,IN,South
319,46933,11.41,IN,South
320,46936,65.41,IN,South
321,46938,30.95,IN,South
322,46939,94.48,IN,South
323,46940,56.81,IN,South
324,46941,26.31,IN,South
325,46943,0.33,IN,South
326,46947,185.32,IN,South
327,46950,28.11,IN,South
328,46951,63.47,IN,South
329,46952,106.13,IN,South
330,46953,84.79,IN,South
331,46959,1.1,IN,South
332,46960,41.6,IN,South
333,46961,0.48,IN,South
334,46962,109.43,IN,South
335,46968,0.37,IN,South
336,46970,184.97,IN,South
337,46971,51.95588321167885,IN,South
338,46974,41.73,IN,South
339,46975,216.2,IN,South
340,46977,51.95588321167885,IN,South
341,46978,63.49,IN,South
342,46979,42.18,IN,South
343,46982,41.59,IN,South
344,46985,70.32,IN,South
345,46986,34.78,IN,South
346,46988,26.4,IN,South
347,46989,33.59,IN,South
348,46990,30.12,IN,South
349,46991,30.6,IN,South
350,46992,161.97,IN,South
351,46994,57.61,IN,South
352,46996,187.2,IN,South
353,46998,0.08,IN,South
354,47001,72.84,IN,South
355,47003,12.59,IN,South
356,47006,103.57,IN,South
357,47010,10.76,IN,South
358,47011,35.72,IN,South
359,47012,165.51,IN,South
360,47016,19.57,IN,South
361,47017,15.41,IN,South
362,47018,71.27,IN,South
363,47020,21.61,IN,South
364,47022,34.0,IN,South
365,47023,47.03,IN,South
366,47024,65.28,IN,South
367,47025,55.34,IN,South
368,47030,33.57,IN,South
369,47031,61.64,IN,South
370,47032,34.98,IN,South
371,47036,16.09,IN,South
372,47037,80.22,IN,South
373,47038,31.07,IN,South
374,47040,67.11,IN,South
375,47041,82.76,IN,South
376,47042,76.92,IN,South
377,47043,103.14,IN,South
378,47060,57.28,IN,South
379,47102,40.03,IN,South
380,47104,51.95588321167885,IN,South
381,47106,69.38,IN,South
382,47108,88.73,IN,South
383,47110,5.8,IN,South
384,47111,79.87,IN,South
385,47112,161.63,IN,South
386,47114,0.98,IN,South
387,47115,56.98,IN,South
388,47116,30.02,IN,South
389,47117,83.44,IN,South
390,47118,142.03,IN,South
391,47119,43.11,IN,South
392,47120,18.59,IN,South
393,47122,35.56,IN,South
394,47123,7.4,IN,South
395,47124,24.5,IN,South
396,47125,41.46,IN,South
397,47126,34.97,IN,South
398,47129,9.41,IN,South
399,47130,34.16,IN,South
400,47135,51.0,IN,South
401,47136,27.71,IN,South
402,47137,60.77,IN,South
403,47138,73.71,IN,South
404,47140,41.44,IN,South
405,47141,34.12,IN,South
406,47142,37.0,IN,South
407,47143,22.58,IN,South
408,47145,42.92,IN,South
409,47147,27.81,IN,South
410,47150,43.89,IN,South
411,47160,0.04,IN,South
412,47161,22.09,IN,South
413,47162,22.78,IN,South
414,47163,20.83,IN,South
415,47164,35.06,IN,South
416,47165,82.4,IN,South
417,47166,12.84,IN,South
418,47167,213.37,IN,South
419,47170,159.21,IN,South
420,47172,24.77,IN,South
421,47174,51.95588321167885,IN,South
422,47175,22.45,IN,South
423,47177,16.67,IN,South
424,47201,204.43,IN,South
425,47203,77.48,IN,South
426,47220,82.9,IN,South
427,47223,57.81,IN,South
428,47224,22.49,IN,South
429,47227,49.15,IN,South
430,47229,50.02,IN,South
431,47230,50.13,IN,South
432,47231,28.28,IN,South
433,47232,31.79,IN,South
434,47234,33.04,IN,South
435,47235,40.23,IN,South
436,47236,51.95588321167885,IN,South
437,47240,298.71,IN,South
438,47243,34.95,IN,South
439,47244,17.6,IN,South
440,47246,58.81,IN,South
441,47247,0.12,IN,South
442,47250,207.19,IN,South
443,47260,55.67,IN,South
444,47264,98.86,IN,South
445,47265,191.17,IN,South
446,47270,18.58,IN,South
447,47272,32.51,IN,South
448,47273,30.94,IN,South
449,47274,211.38,IN,South
450,47281,55.68,IN,South
451,47283,59.96,IN,South
452,47302,66.39,IN,South
453,47303,58.08,IN,South
454,47304,35.02,IN,South
455,47305,1.34,IN,South
456,47320,33.49,IN,South
457,47325,20.35,IN,South
458,47326,66.86,IN,South
459,47327,54.58,IN,South
460,47330,59.43,IN,South
461,47331,190.38,IN,South
462,47334,26.52,IN,South
463,47336,46.97,IN,South
464,47338,28.0,IN,South
465,47339,13.26,IN,South
466,47340,53.54,IN,South
467,47341,36.54,IN,South
468,47342,50.01,IN,South
469,47345,29.74,IN,South
470,47346,45.04,IN,South
471,47348,116.52,IN,South
472,47352,30.06,IN,South
473,47353,124.5,IN,South
474,47354,29.65,IN,South
475,47355,63.56,IN,South
476,47356,53.87,IN,South
477,47357,34.83,IN,South
478,47358,37.8,IN,South
479,47359,60.28,IN,South
480,47360,34.4,IN,South
481,47362,146.55,IN,South
482,47368,34.97,IN,South
483,47369,34.3,IN,South
484,47371,218.34,IN,South
485,47373,30.16,IN,South
486,47374,117.42,IN,South
487,47380,60.92,IN,South
488,47381,0.3,IN,South
489,47383,32.73,IN,South
490,47384,32.78,IN,South
491,47385,14.87,IN,South
492,47386,17.77,IN,South
493,47387,16.38,IN,South
494,47390,78.42,IN,South
495,47392,51.95588321167885,IN,South
496,47393,37.21,IN,South
497,47394,120.89,IN,South
498,47396,31.87,IN,South
499,47401,82.92,IN,South
500,47403,86.45,IN,South
501,47404,51.28,IN,South
502,47405,51.95588321167885,IN,South
503,47406,51.95588321167885,IN,South
504,47408,66.42,IN,South
505,47421,182.73,IN,South
506,47424,184.29,IN,South
507,47427,53.26,IN,South
508,47429,24.66,IN,South
509,47431,36.96,IN,South
510,47432,82.67,IN,South
511,47433,80.91,IN,South
512,47436,45.8,IN,South
513,47438,59.36,IN,South
514,47441,67.06,IN,South
515,47443,44.43,IN,South
516,47446,120.61,IN,South
517,47448,196.96,IN,South
518,47449,19.54,IN,South
519,47451,1.86,IN,South
520,47452,102.02,IN,South
521,47453,12.47,IN,South
522,47454,126.49,IN,South
523,47456,26.27,IN,South
524,47457,0.58,IN,South
525,47459,58.37,IN,South
526,47460,150.4,IN,South
527,47462,75.86,IN,South
528,47465,23.86,IN,South
529,47468,26.33,IN,South
530,47469,62.46,IN,South
531,47470,46.21,IN,South
532,47471,68.62,IN,South
533,47501,146.21,IN,South
534,47512,49.85,IN,South
535,47513,59.31,IN,South
536,47514,4.4,IN,South
537,47515,55.76,IN,South
538,47516,29.73,IN,South
539,47519,19.49,IN,South
540,47520,81.51,IN,South
541,47521,18.85,IN,South
542,47522,8.46,IN,South
543,47523,65.74,IN,South
544,47524,50.93,IN,South
545,47525,28.88,IN,South
546,47527,53.64,IN,South
547,47528,18.74,IN,South
548,47529,31.62,IN,South
549,47531,36.94,IN,South
550,47532,69.78,IN,South
551,47537,15.97,IN,South
552,47541,20.0,IN,South
553,47542,81.36,IN,South
554,47546,123.8,IN,South
555,47550,35.13,IN,South
556,47551,32.18,IN,South
557,47552,5.16,IN,South
558,47553,139.43,IN,South
559,47557,54.58,IN,South
560,47558,86.27,IN,South
561,47561,71.43,IN,South
562,47562,66.05,IN,South
563,47564,36.83,IN,South
564,47567,114.52,IN,South
565,47568,27.69,IN,South
566,47573,51.95588321167885,IN,South
567,47574,14.55,IN,South
568,47575,21.18,IN,South
569,47576,21.77,IN,South
570,47577,25.24,IN,South
571,47578,50.17,IN,South
572,47579,11.6,IN,South
573,47580,5.02,IN,South
574,47581,142.84,IN,South
575,47585,35.41,IN,South
576,47586,94.28,IN,South
577,47588,16.31,IN,South
578,47590,39.43,IN,South
579,47591,161.76,IN,South
580,47597,44.32,IN,South
581,47598,70.92,IN,South
582,47601,124.73,IN,South
583,47610,35.68,IN,South
584,47611,38.87,IN,South
585,47612,15.91,IN,South
586,47613,52.81,IN,South
587,47615,35.96,IN,South
588,47616,42.78,IN,South
589,47619,48.34,IN,South
590,47620,208.02,IN,South
591,47630,46.7,IN,South
592,47631,60.44,IN,South
593,47633,62.13,IN,South
594,47634,50.48,IN,South
595,47635,84.77,IN,South
596,47637,58.02,IN,South
597,47638,49.2,IN,South
598,47639,43.05,IN,South
599,47640,38.48,IN,South
600,47647,51.95588321167885,IN,South
601,47648,53.59,IN,South
602,47649,42.96,IN,South
603,47660,89.43,IN,South
604,47665,70.44,IN,South
605,47666,49.14,IN,South
606,47670,79.68,IN,South
607,47708,0.55,IN,South
608,47710,8.79,IN,South
609,47711,16.22,IN,South
610,47712,63.4,IN,South
611,47713,3.85,IN,South
612,47714,7.98,IN,South
613,47715,23.22,IN,South
614,47720,55.54,IN,South
615,47725,57.01,IN,South
616,47802,161.6,IN,South
617,47803,34.16,IN,South
618,47804,6.58,IN,South
619,47805,52.15,IN,South
620,47807,3.75,IN,South
621,47832,42.39,IN,South
622,47833,37.15,IN,South
623,47834,150.02,IN,South
624,47837,29.07,IN,South
625,47838,105.43,IN,South
626,47840,53.12,IN,South
627,47841,66.27,IN,South
628,47842,71.91,IN,South
629,47846,31.52,IN,South
630,47847,48.57,IN,South
631,47848,16.86,IN,South
632,47849,26.06,IN,South
633,47850,51.02,IN,South
634,47854,28.65,IN,South
635,47858,31.87,IN,South
636,47859,41.34,IN,South
637,47861,43.94,IN,South
638,47862,40.39,IN,South
639,47864,51.95588321167885,IN,South
640,47866,17.8,IN,South
641,47868,58.11,IN,South
642,47872,171.06,IN,South
643,47874,68.78,IN,South
644,47879,59.25,IN,South
645,47882,143.41,IN,South
646,47885,82.32,IN,South
647,47901,0.59,IN,South
648,47904,5.66,IN,South
649,47905,119.75,IN,South
650,47906,135.68,IN,South
651,47907,51.95588321167885,IN,South
652,47909,115.7,IN,South
653,47917,39.51,IN,South
654,47918,145.46,IN,South
655,47920,28.41,IN,South
656,47921,41.0,IN,South
657,47922,75.71,IN,South
658,47923,91.56,IN,South
659,47926,37.23,IN,South
660,47928,43.25,IN,South
661,47929,42.3,IN,South
662,47930,25.65,IN,South
663,47932,108.7,IN,South
664,47933,234.56,IN,South
665,47940,40.84,IN,South
666,47942,56.23,IN,South
667,47943,62.7,IN,South
668,47944,185.75,IN,South
669,47946,92.49,IN,South
670,47948,55.26,IN,South
671,47949,41.93,IN,South
672,47950,37.7,IN,South
673,47951,64.57,IN,South
674,47952,114.77,IN,South
675,47954,67.13,IN,South
676,47955,24.84,IN,South
677,47957,59.3,IN,South
678,47959,68.42,IN,South
679,47960,117.19,IN,South
680,47963,103.48,IN,South
681,47967,31.16,IN,South
682,47968,24.41,IN,South
683,47970,58.66,IN,South
684,47971,55.59,IN,South
685,47974,40.92,IN,South
686,47975,39.02,IN,South
687,47977,83.51,IN,South
688,47978,257.44,IN,South
689,47980,55.48,IN,South
690,47981,36.37,IN,South
691,47987,123.58,IN,South
692,47989,42.05,IN,South
693,47990,43.06,IN,South
694,47991,30.02,IN,South
695,47992,36.44,IN,South
696,47993,141.68,IN,South
697,47994,14.68,IN,South
698,47995,82.37,IN,South
699,47997,0.12,IN,South
0,40003,42.24,KY,South
1,40004,144.42,KY,South
2,40006,91.27,KY,South
3,40007,55.95900576368881,KY,South
4,40008,78.87,KY,South
5,40009,63.52,KY,South
6,40010,1.83,KY,South
7,40011,58.59,KY,South
8,40012,10.02,KY,South
9,40013,79.43,KY,South
10,40014,55.09,KY,South
11,40019,37.51,KY,South
12,40022,16.09,KY,South
13,40023,22.59,KY,South
14,40026,31.06,KY,South
15,40031,66.51,KY,South
16,40033,143.37,KY,South
17,40036,18.04,KY,South
18,40037,49.1,KY,South
19,40040,20.49,KY,South
20,40041,55.95900576368881,KY,South
21,40045,57.0,KY,South
22,40046,48.25,KY,South
23,40047,29.68,KY,South
24,40050,9.71,KY,South
25,40051,94.76,KY,South
26,40052,21.1,KY,South
27,40055,20.55,KY,South
28,40056,2.85,KY,South
29,40057,97.68,KY,South
30,40059,25.92,KY,South
31,40060,43.87,KY,South
32,40062,5.21,KY,South
33,40065,176.57,KY,South
34,40067,43.12,KY,South
35,40068,43.58,KY,South
36,40069,190.43,KY,South
37,40070,11.99,KY,South
38,40071,122.58,KY,South
39,40075,47.2,KY,South
40,40076,56.52,KY,South
41,40077,8.5,KY,South
42,40078,58.41,KY,South
43,40104,63.46,KY,South
44,40107,53.48,KY,South
45,40108,71.07,KY,South
46,40109,9.37,KY,South
47,40111,37.03,KY,South
48,40115,19.91,KY,South
49,40117,19.12,KY,South
50,40118,13.68,KY,South
51,40119,95.51,KY,South
52,40121,55.95900576368881,KY,South
53,40122,55.95900576368881,KY,South
54,40140,24.06,KY,South
55,40142,49.3,KY,South
56,40143,148.97,KY,South
57,40144,62.5,KY,South
58,40145,31.98,KY,South
59,40146,83.66,KY,South
60,40150,34.56,KY,South
61,40152,9.42,KY,South
62,40155,0.54,KY,South
63,40157,31.11,KY,South
64,40160,16.85,KY,South
65,40161,7.06,KY,South
66,40162,56.45,KY,South
67,40165,144.42,KY,South
68,40170,17.76,KY,South
69,40171,18.4,KY,South
70,40175,75.52,KY,South
71,40176,28.72,KY,South
72,40177,13.7,KY,South
73,40178,8.15,KY,South
74,40202,1.55,KY,South
75,40203,2.94,KY,South
76,40204,3.25,KY,South
77,40205,6.98,KY,South
78,40206,5.71,KY,South
79,40207,11.62,KY,South
80,40208,2.46,KY,South
81,40209,2.68,KY,South
82,40210,3.22,KY,South
83,40211,7.48,KY,South
84,40212,3.8,KY,South
85,40213,12.45,KY,South
86,40214,14.86,KY,South
87,40215,3.75,KY,South
88,40216,14.45,KY,South
89,40217,2.4,KY,South
90,40218,9.73,KY,South
91,40219,14.39,KY,South
92,40220,7.62,KY,South
93,40222,10.43,KY,South
94,40223,11.74,KY,South
95,40228,7.57,KY,South
96,40229,19.75,KY,South
97,40241,14.45,KY,South
98,40242,2.67,KY,South
99,40243,4.01,KY,South
100,40245,32.38,KY,South
101,40258,11.68,KY,South
102,40272,34.11,KY,South
103,40291,21.93,KY,South
104,40293,55.95900576368881,KY,South
105,40299,53.1,KY,South
106,40311,175.46,KY,South
107,40312,56.76,KY,South
108,40313,38.05,KY,South
109,40316,6.13,KY,South
110,40322,116.78,KY,South
111,40324,155.05,KY,South
112,40328,49.01,KY,South
113,40330,221.4,KY,South
114,40334,55.95900576368881,KY,South
115,40336,206.0,KY,South
116,40337,57.66,KY,South
117,40342,188.27,KY,South
118,40346,12.41,KY,South
119,40347,34.97,KY,South
120,40350,12.52,KY,South
121,40351,247.35,KY,South
122,40353,139.15,KY,South
123,40355,55.95900576368881,KY,South
124,40356,139.87,KY,South
125,40358,20.74,KY,South
126,40359,228.71,KY,South
127,40360,146.45,KY,South
128,40361,258.29,KY,South
129,40370,83.2,KY,South
130,40371,74.33,KY,South
131,40372,53.49,KY,South
132,40374,63.03,KY,South
133,40376,55.95900576368881,KY,South
134,40379,63.53,KY,South
135,40380,114.37,KY,South
136,40383,151.8,KY,South
137,40385,47.27,KY,South
138,40387,72.35,KY,South
139,40390,25.36,KY,South
140,40391,239.43,KY,South
141,40402,47.31,KY,South
142,40403,114.26,KY,South
143,40409,43.86,KY,South
144,40419,92.15,KY,South
145,40422,114.95,KY,South
146,40437,121.16,KY,South
147,40440,9.23,KY,South
148,40442,24.58,KY,South
149,40444,158.5,KY,South
150,40445,45.62,KY,South
151,40447,249.7,KY,South
152,40456,172.76,KY,South
153,40460,36.96,KY,South
154,40461,50.9,KY,South
155,40464,33.64,KY,South
156,40468,33.83,KY,South
157,40472,52.3,KY,South
158,40475,273.0,KY,South
159,40481,5.49,KY,South
160,40484,131.98,KY,South
161,40486,50.59,KY,South
162,40489,66.27,KY,South
163,40502,7.2,KY,South
164,40503,8.85,KY,South
165,40504,6.08,KY,South
166,40505,7.98,KY,South
167,40507,0.42,KY,South
168,40508,4.26,KY,South
169,40509,41.12,KY,South
170,40510,21.43,KY,South
171,40511,88.58,KY,South
172,40513,14.45,KY,South
173,40514,2.96,KY,South
174,40515,56.27,KY,South
175,40516,35.22,KY,South
176,40517,6.17,KY,South
177,40601,220.48,KY,South
178,40701,143.75,KY,South
179,40729,65.79,KY,South
180,40734,40.75,KY,South
181,40737,7.23,KY,South
182,40740,16.27,KY,South
183,40741,209.05,KY,South
184,40744,105.66,KY,South
185,40754,55.95900576368881,KY,South
186,40759,48.0,KY,South
187,40763,21.05,KY,South
188,40769,293.8,KY,South
189,40771,12.47,KY,South
190,40806,23.24,KY,South
191,40808,5.81,KY,South
192,40810,81.1,KY,South
193,40813,12.52,KY,South
194,40815,40.88,KY,South
195,40816,55.95900576368881,KY,South
196,40818,4.36,KY,South
197,40819,14.01,KY,South
198,40820,15.68,KY,South
199,40823,57.96,KY,South
200,40826,31.28,KY,South
201,40827,15.51,KY,South
202,40828,47.33,KY,South
203,40830,2.75,KY,South
204,40831,51.45,KY,South
205,40840,17.01,KY,South
206,40843,30.03,KY,South
207,40845,8.71,KY,South
208,40856,43.02,KY,South
209,40858,16.15,KY,South
210,40862,16.56,KY,South
211,40863,25.37,KY,South
212,40865,3.11,KY,South
213,40868,25.31,KY,South
214,40870,7.04,KY,South
215,40873,29.68,KY,South
216,40874,39.05,KY,South
217,40902,37.67,KY,South
218,40903,8.58,KY,South
219,40906,123.87,KY,South
220,40913,17.63,KY,South
221,40914,12.46,KY,South
222,40915,9.64,KY,South
223,40921,15.4,KY,South
224,40923,4.02,KY,South
225,40927,11.75,KY,South
226,40935,76.1,KY,South
227,40939,6.54,KY,South
228,40940,19.09,KY,South
229,40943,6.36,KY,South
230,40946,11.1,KY,South
231,40949,3.25,KY,South
232,40953,11.49,KY,South
233,40958,6.99,KY,South
234,40962,371.04,KY,South
235,40964,2.56,KY,South
236,40965,71.95,KY,South
237,40972,56.8,KY,South
238,40977,133.19,KY,South
239,40979,2.53,KY,South
240,40982,6.24,KY,South
241,40983,18.89,KY,South
242,40988,21.21,KY,South
243,40995,55.95900576368881,KY,South
244,40997,21.1,KY,South
245,40999,55.95900576368881,KY,South
246,41001,51.16,KY,South
247,41002,45.01,KY,South
248,41003,85.34,KY,South
249,41004,114.32,KY,South
250,41005,58.38,KY,South
251,41006,52.87,KY,South
252,41007,51.73,KY,South
253,41008,43.49,KY,South
254,41010,88.22,KY,South
255,41011,7.13,KY,South
256,41014,1.06,KY,South
257,41015,25.45,KY,South
258,41016,1.6,KY,South
259,41017,20.95,KY,South
260,41018,11.42,KY,South
261,41030,27.92,KY,South
262,41031,217.47,KY,South
263,41033,42.03,KY,South
264,41034,27.98,KY,South
265,41035,106.47,KY,South
266,41039,74.03,KY,South
267,41040,146.1,KY,South
268,41041,107.33,KY,South
269,41042,28.65,KY,South
270,41043,50.42,KY,South
271,41044,31.39,KY,South
272,41045,35.26,KY,South
273,41046,16.92,KY,South
274,41048,21.98,KY,South
275,41049,84.49,KY,South
276,41051,29.06,KY,South
277,41052,55.95900576368881,KY,South
278,41055,62.99,KY,South
279,41056,140.0,KY,South
280,41059,13.65,KY,South
281,41063,36.1,KY,South
282,41064,85.56,KY,South
283,41071,5.42,KY,South
284,41073,0.92,KY,South
285,41074,1.28,KY,South
286,41075,6.02,KY,South
287,41076,20.95,KY,South
288,41080,28.32,KY,South
289,41083,34.4,KY,South
290,41086,64.48,KY,South
291,41091,51.55,KY,South
292,41092,38.3,KY,South
293,41093,108.51,KY,South
294,41094,45.1,KY,South
295,41095,28.99,KY,South
296,41097,100.33,KY,South
297,41098,50.87,KY,South
298,41101,9.65,KY,South
299,41102,51.16,KY,South
300,41121,49.82,KY,South
301,41124,58.07,KY,South
302,41129,85.57,KY,South
303,41132,20.26,KY,South
304,41135,8.44,KY,South
305,41139,6.08,KY,South
306,41141,65.11,KY,South
307,41143,197.78,KY,South
308,41144,150.38,KY,South
309,41146,3.21,KY,South
310,41149,33.16,KY,South
311,41159,23.93,KY,South
312,41160,55.95900576368881,KY,South
313,41164,243.79,KY,South
314,41166,21.53,KY,South
315,41168,54.61,KY,South
316,41169,6.37,KY,South
317,41171,125.11,KY,South
318,41174,10.12,KY,South
319,41175,76.75,KY,South
320,41179,326.08,KY,South
321,41180,71.3,KY,South
322,41183,1.29,KY,South
323,41189,60.59,KY,South
324,41201,9.95,KY,South
325,41203,6.08,KY,South
326,41204,12.14,KY,South
327,41214,20.03,KY,South
328,41216,15.88,KY,South
329,41219,45.6,KY,South
330,41222,28.96,KY,South
331,41224,90.54,KY,South
332,41226,5.63,KY,South
333,41230,226.19,KY,South
334,41231,5.77,KY,South
335,41232,11.34,KY,South
336,41234,5.08,KY,South
337,41238,22.56,KY,South
338,41240,44.73,KY,South
339,41250,76.1,KY,South
340,41254,9.95,KY,South
341,41255,15.13,KY,South
342,41256,22.0,KY,South
343,41257,5.97,KY,South
344,41260,2.54,KY,South
345,41262,22.23,KY,South
346,41263,6.31,KY,South
347,41264,12.02,KY,South
348,41265,30.19,KY,South
349,41267,7.71,KY,South
350,41268,0.31,KY,South
351,41271,3.0,KY,South
352,41274,3.7,KY,South
353,41301,206.42,KY,South
354,41307,55.95900576368881,KY,South
355,41310,55.95900576368881,KY,South
356,41311,176.58,KY,South
357,41314,224.83,KY,South
358,41317,23.64,KY,South
359,41332,42.18,KY,South
360,41338,55.95900576368881,KY,South
361,41339,352.59,KY,South
362,41348,38.52,KY,South
363,41351,55.95900576368881,KY,South
364,41352,21.13,KY,South
365,41360,17.05,KY,South
366,41364,55.95900576368881,KY,South
367,41365,14.14,KY,South
368,41366,55.95900576368881,KY,South
369,41367,5.12,KY,South
370,41385,19.81,KY,South
371,41386,55.95900576368881,KY,South
372,41390,1.13,KY,South
373,41397,55.95900576368881,KY,South
374,41408,7.04,KY,South
375,41421,11.74,KY,South
376,41425,31.12,KY,South
377,41464,14.99,KY,South
378,41465,261.11,KY,South
379,41472,276.3,KY,South
380,41501,201.0,KY,South
381,41503,1.48,KY,South
382,41512,13.27,KY,South
383,41513,11.42,KY,South
384,41514,50.59,KY,South
385,41517,1.03,KY,South
386,41519,10.65,KY,South
387,41522,65.12,KY,South
388,41524,7.77,KY,South
389,41527,6.02,KY,South
390,41528,7.65,KY,South
391,41531,9.39,KY,South
392,41534,1.7,KY,South
393,41535,2.36,KY,South
394,41537,55.81,KY,South
395,41539,36.48,KY,South
396,41540,9.96,KY,South
397,41543,5.15,KY,South
398,41544,11.21,KY,South
399,41547,6.76,KY,South
400,41548,16.61,KY,South
401,41553,34.18,KY,South
402,41554,33.63,KY,South
403,41555,8.25,KY,South
404,41557,20.81,KY,South
405,41558,14.64,KY,South
406,41559,4.5,KY,South
407,41560,6.49,KY,South
408,41562,27.25,KY,South
409,41563,5.65,KY,South
410,41564,16.6,KY,South
411,41566,13.66,KY,South
412,41567,3.3,KY,South
413,41568,27.38,KY,South
414,41571,19.08,KY,South
415,41572,45.54,KY,South
416,41601,4.54,KY,South
417,41602,3.59,KY,South
418,41603,13.02,KY,South
419,41604,5.49,KY,South
420,41605,1.62,KY,South
421,41606,10.47,KY,South
422,41607,5.74,KY,South
423,41612,0.36,KY,South
424,41615,5.83,KY,South
425,41616,13.68,KY,South
426,41619,4.98,KY,South
427,41621,0.67,KY,South
428,41622,1.63,KY,South
429,41630,18.4,KY,South
430,41631,11.96,KY,South
431,41632,31.8,KY,South
432,41635,20.58,KY,South
433,41636,9.8,KY,South
434,41640,51.91,KY,South
435,41642,9.22,KY,South
436,41643,0.85,KY,South
437,41645,13.0,KY,South
438,41647,18.5,KY,South
439,41649,23.31,KY,South
440,41650,3.46,KY,South
441,41651,55.95900576368881,KY,South
442,41653,120.08,KY,South
443,41655,16.55,KY,South
444,41659,2.7,KY,South
445,41660,6.75,KY,South
446,41663,1.76,KY,South
447,41666,9.03,KY,South
448,41667,7.93,KY,South
449,41669,3.48,KY,South
450,41701,147.88,KY,South
451,41712,5.21,KY,South
452,41714,28.19,KY,South
453,41719,11.76,KY,South
454,41721,38.11,KY,South
455,41722,23.99,KY,South
456,41723,20.7,KY,South
457,41727,11.14,KY,South
458,41729,55.95900576368881,KY,South
459,41731,26.82,KY,South
460,41735,8.72,KY,South
461,41740,17.87,KY,South
462,41745,55.95900576368881,KY,South
463,41746,7.9,KY,South
464,41749,92.72,KY,South
465,41751,0.76,KY,South
466,41754,4.38,KY,South
467,41759,5.13,KY,South
468,41760,55.95900576368881,KY,South
469,41762,5.62,KY,South
470,41763,25.27,KY,South
471,41764,19.08,KY,South
472,41766,4.92,KY,South
473,41772,31.63,KY,South
474,41773,16.27,KY,South
475,41774,48.14,KY,South
476,41775,9.18,KY,South
477,41776,30.08,KY,South
478,41777,38.62,KY,South
479,41804,13.28,KY,South
480,41812,6.09,KY,South
481,41815,6.42,KY,South
482,41817,2.84,KY,South
483,41819,17.53,KY,South
484,41821,24.03,KY,South
485,41822,30.2,KY,South
486,41824,9.38,KY,South
487,41825,6.02,KY,South
488,41826,10.13,KY,South
489,41828,18.88,KY,South
490,41831,10.05,KY,South
491,41832,6.4,KY,South
492,41833,16.04,KY,South
493,41834,12.37,KY,South
494,41835,5.93,KY,South
495,41836,10.83,KY,South
496,41837,13.36,KY,South
497,41838,8.03,KY,South
498,41839,29.46,KY,South
499,41840,3.78,KY,South
500,41843,14.93,KY,South
501,41844,13.26,KY,South
502,41845,55.95900576368881,KY,South
503,41847,13.46,KY,South
504,41848,55.95900576368881,KY,South
505,41855,8.92,KY,South
506,41858,88.05,KY,South
507,41859,7.46,KY,South
508,41861,2.17,KY,South
509,41862,20.73,KY,South
510,42001,73.3,KY,South
511,42003,69.61,KY,South
512,42020,25.49,KY,South
513,42021,57.66,KY,South
514,42023,99.96,KY,South
515,42024,45.49,KY,South
516,42025,198.69,KY,South
517,42027,45.14,KY,South
518,42028,27.11,KY,South
519,42029,46.54,KY,South
520,42031,150.37,KY,South
521,42032,1.63,KY,South
522,42035,28.12,KY,South
523,42036,26.54,KY,South
524,42038,87.54,KY,South
525,42039,50.95,KY,South
526,42040,32.82,KY,South
527,42041,110.11,KY,South
528,42044,23.82,KY,South
529,42045,35.95,KY,South
530,42047,21.76,KY,South
531,42048,26.27,KY,South
532,42049,42.53,KY,South
533,42050,116.17,KY,South
534,42051,56.13,KY,South
535,42053,116.75,KY,South
536,42054,29.15,KY,South
537,42055,45.03,KY,South
538,42056,54.24,KY,South
539,42058,16.4,KY,South
540,42064,299.61,KY,South
541,42066,216.82,KY,South
542,42069,26.2,KY,South
543,42071,212.13,KY,South
544,42076,42.13,KY,South
545,42078,85.9,KY,South
546,42079,52.11,KY,South
547,42081,116.94,KY,South
548,42082,28.24,KY,South
549,42083,28.88,KY,South
550,42085,28.56,KY,South
551,42086,33.46,KY,South
552,42087,70.09,KY,South
553,42088,63.49,KY,South
554,42101,283.11,KY,South
555,42103,70.87,KY,South
556,42104,56.11,KY,South
557,42120,45.17,KY,South
558,42122,37.74,KY,South
559,42123,23.6,KY,South
560,42124,55.95900576368881,KY,South
561,42127,88.53,KY,South
562,42129,203.06,KY,South
563,42130,55.95900576368881,KY,South
564,42131,55.95900576368881,KY,South
565,42133,70.97,KY,South
566,42134,212.19,KY,South
567,42140,41.21,KY,South
568,42141,277.59,KY,South
569,42151,27.52,KY,South
570,42153,16.29,KY,South
571,42154,21.29,KY,South
572,42156,5.34,KY,South
573,42157,17.59,KY,South
574,42159,28.27,KY,South
575,42160,40.03,KY,South
576,42163,55.95900576368881,KY,South
577,42164,252.07,KY,South
578,42166,71.72,KY,South
579,42167,206.87,KY,South
580,42170,32.64,KY,South
581,42171,101.43,KY,South
582,42202,61.25,KY,South
583,42204,35.81,KY,South
584,42206,118.45,KY,South
585,42207,19.31,KY,South
586,42210,143.85,KY,South
587,42211,280.69,KY,South
588,42214,19.43,KY,South
589,42215,58.57,KY,South
590,42217,159.37,KY,South
591,42220,177.04,KY,South
592,42223,55.95900576368881,KY,South
593,42232,27.12,KY,South
594,42234,59.27,KY,South
595,42236,66.42,KY,South
596,42240,268.76,KY,South
597,42252,55.95900576368881,KY,South
598,42254,5.08,KY,South
599,42256,191.01,KY,South
600,42259,32.84,KY,South
601,42261,294.5,KY,South
602,42262,36.02,KY,South
603,42265,51.52,KY,South
604,42266,75.32,KY,South
605,42273,18.27,KY,South
606,42274,37.71,KY,South
607,42275,43.99,KY,South
608,42276,201.61,KY,South
609,42280,22.06,KY,South
610,42285,8.22,KY,South
611,42286,57.45,KY,South
612,42287,55.95900576368881,KY,South
613,42301,171.0,KY,South
614,42303,47.91,KY,South
615,42320,147.33,KY,South
616,42321,1.54,KY,South
617,42323,2.01,KY,South
618,42324,36.52,KY,South
619,42325,30.29,KY,South
620,42326,13.35,KY,South
621,42327,124.39,KY,South
622,42328,64.41,KY,South
623,42330,86.56,KY,South
624,42333,31.84,KY,South
625,42337,49.46,KY,South
626,42338,3.39,KY,South
627,42339,29.96,KY,South
628,42343,71.38,KY,South
629,42344,34.81,KY,South
630,42345,152.71,KY,South
631,42347,123.71,KY,South
632,42348,111.48,KY,South
633,42349,61.66,KY,South
634,42350,41.6,KY,South
635,42351,68.66,KY,South
636,42352,22.77,KY,South
637,42354,0.87,KY,South
638,42355,28.57,KY,South
639,42361,34.95,KY,South
640,42366,80.59,KY,South
641,42367,1.06,KY,South
642,42368,42.33,KY,South
643,42369,4.29,KY,South
644,42371,38.01,KY,South
645,42372,37.24,KY,South
646,42375,55.95900576368881,KY,South
647,42376,99.98,KY,South
648,42378,67.01,KY,South
649,42403,55.95900576368881,KY,South
650,42404,88.33,KY,South
651,42406,106.03,KY,South
652,42408,128.64,KY,South
653,42409,86.53,KY,South
654,42410,2.63,KY,South
655,42411,86.95,KY,South
656,42413,52.22,KY,South
657,42420,188.47,KY,South
658,42431,166.58,KY,South
659,42436,18.7,KY,South
660,42437,173.47,KY,South
661,42441,59.59,KY,South
662,42442,61.11,KY,South
663,42445,265.0,KY,South
664,42450,59.6,KY,South
665,42451,39.52,KY,South
666,42452,53.57,KY,South
667,42453,16.37,KY,South
668,42455,76.33,KY,South
669,42456,66.83,KY,South
670,42458,16.48,KY,South
671,42459,120.82,KY,South
672,42461,36.2,KY,South
673,42462,44.18,KY,South
674,42464,61.04,KY,South
675,42501,199.78,KY,South
676,42503,129.32,KY,South
677,42516,13.45,KY,South
678,42518,25.38,KY,South
679,42519,49.3,KY,South
680,42528,48.99,KY,South
681,42533,1.47,KY,South
682,42539,211.93,KY,South
683,42541,15.48,KY,South
684,42544,145.65,KY,South
685,42553,62.23,KY,South
686,42565,26.81,KY,South
687,42566,17.12,KY,South
688,42567,91.56,KY,South
689,42602,191.49,KY,South
690,42603,3.66,KY,South
691,42629,99.64,KY,South
692,42633,434.92,KY,South
693,42634,92.14,KY,South
694,42635,23.39,KY,South
695,42642,139.81,KY,South
696,42647,139.18,KY,South
697,42649,71.8,KY,South
698,42653,79.32,KY,South
699,42701,158.63,KY,South
700,42712,52.51,KY,South
701,42713,40.84,KY,South
702,42715,15.49,KY,South
703,42716,36.2,KY,South
704,42717,299.12,KY,South
705,42718,252.46,KY,South
706,42721,145.72,KY,South
707,42722,17.39,KY,South
708,42724,76.96,KY,South
709,42726,101.04,KY,South
710,42728,319.81,KY,South
711,42729,51.9,KY,South
712,42731,11.21,KY,South
713,42732,58.23,KY,South
714,42733,58.03,KY,South
715,42740,31.71,KY,South
716,42741,14.96,KY,South
717,42742,55.95900576368881,KY,South
718,42743,204.51,KY,South
719,42746,46.7,KY,South
720,42748,131.67,KY,South
721,42749,91.21,KY,South
722,42753,25.62,KY,South
723,42754,186.87,KY,South
724,42757,82.07,KY,South
725,42762,9.35,KY,South
726,42764,15.63,KY,South
727,42765,117.79,KY,South
728,42776,67.64,KY,South
729,42782,35.47,KY,South
730,42784,59.76,KY,South
731,42788,8.28,KY,South
0,70001,6.0,LA,South
1,70002,3.22,LA,South
2,70003,7.02,LA,South
3,70005,4.18,LA,South
4,70006,2.59,LA,South
5,70030,31.49,LA,South
6,70031,3.52,LA,South
7,70032,1.75,LA,South
8,70036,4.38,LA,South
9,70037,62.52,LA,South
10,70039,12.13,LA,South
11,70040,63.17,LA,South
12,70041,10.5,LA,South
13,70043,7.78,LA,South
14,70047,10.76,LA,South
15,70049,18.12,LA,South
16,70051,8.9,LA,South
17,70052,2.9,LA,South
18,70053,3.43,LA,South
19,70056,6.77,LA,South
20,70057,38.49,LA,South
21,70058,12.63,LA,South
22,70062,7.08,LA,South
23,70065,8.03,LA,South
24,70067,10.48,LA,South
25,70068,53.81,LA,South
26,70070,92.46,LA,South
27,70071,2.58,LA,South
28,70072,20.75,LA,South
29,70075,3.31,LA,South
30,70076,2.73,LA,South
31,70079,2.24,LA,South
32,70080,10.69,LA,South
33,70083,125.36,LA,South
34,70084,15.11,LA,South
35,70085,38.6,LA,South
36,70086,22.63,LA,South
37,70087,12.61,LA,South
38,70090,49.75,LA,South
39,70091,221.58,LA,South
40,70092,4.85,LA,South
41,70094,35.46,LA,South
42,70112,0.87,LA,South
43,70113,1.02,LA,South
44,70114,4.87,LA,South
45,70115,3.88,LA,South
46,70116,1.29,LA,South
47,70117,5.48,LA,South
48,70118,4.68,LA,South
49,70119,4.47,LA,South
50,70121,3.76,LA,South
51,70122,7.05,LA,South
52,70123,7.5,LA,South
53,70124,6.66,LA,South
54,70125,2.34,LA,South
55,70126,10.1,LA,South
56,70127,7.1,LA,South
57,70128,4.87,LA,South
58,70129,90.71,LA,South
59,70130,2.11,LA,South
60,70131,11.91,LA,South
61,70139,87.4937748344371,LA,South
62,70140,87.4937748344371,LA,South
63,70145,87.4937748344371,LA,South
64,70146,87.4937748344371,LA,South
65,70149,87.4937748344371,LA,South
66,70163,87.4937748344371,LA,South
67,70170,87.4937748344371,LA,South
68,70301,288.05,LA,South
69,70339,56.23,LA,South
70,70341,57.96,LA,South
71,70342,7.43,LA,South
72,70343,28.93,LA,South
73,70344,102.85,LA,South
74,70345,92.94,LA,South
75,70346,51.46,LA,South
76,70352,3.7,LA,South
77,70353,21.28,LA,South
78,70354,116.89,LA,South
79,70355,103.74,LA,South
80,70356,65.57,LA,South
81,70357,211.45,LA,South
82,70358,6.41,LA,South
83,70359,9.53,LA,South
84,70360,64.33,LA,South
85,70363,74.95,LA,South
86,70364,42.38,LA,South
87,70372,29.32,LA,South
88,70373,71.89,LA,South
89,70374,49.39,LA,South
90,70375,87.4937748344371,LA,South
91,70377,132.23,LA,South
92,70380,64.82,LA,South
93,70390,161.19,LA,South
94,70392,30.74,LA,South
95,70393,7.24,LA,South
96,70394,86.03,LA,South
97,70395,48.97,LA,South
98,70397,44.32,LA,South
99,70401,34.99,LA,South
100,70403,42.96,LA,South
101,70420,51.02,LA,South
102,70421,87.4937748344371,LA,South
103,70422,169.31,LA,South
104,70426,121.28,LA,South
105,70427,147.25,LA,South
106,70431,71.96,LA,South
107,70433,48.6,LA,South
108,70435,104.56,LA,South
109,70436,3.94,LA,South
110,70437,91.83,LA,South
111,70438,336.06,LA,South
112,70441,208.16,LA,South
113,70442,6.8,LA,South
114,70443,77.12,LA,South
115,70444,251.45,LA,South
116,70445,115.66,LA,South
117,70446,85.01,LA,South
118,70447,31.3,LA,South
119,70448,21.95,LA,South
120,70449,68.28,LA,South
121,70450,74.38,LA,South
122,70452,74.44,LA,South
123,70453,34.94,LA,South
124,70454,161.85,LA,South
125,70455,16.54,LA,South
126,70456,32.0,LA,South
127,70458,21.11,LA,South
128,70460,36.65,LA,South
129,70461,48.66,LA,South
130,70462,80.15,LA,South
131,70466,31.55,LA,South
132,70471,29.38,LA,South
133,70500,87.4937748344371,LA,South
134,70501,15.62,LA,South
135,70503,11.86,LA,South
136,70506,20.71,LA,South
137,70507,21.2,LA,South
138,70508,24.96,LA,South
139,70510,230.24,LA,South
140,70512,94.88,LA,South
141,70514,5.15,LA,South
142,70515,73.76,LA,South
143,70516,39.4,LA,South
144,70517,140.04,LA,South
145,70518,41.88,LA,South
146,70520,39.36,LA,South
147,70525,108.93,LA,South
148,70526,124.95,LA,South
149,70528,4.48,LA,South
150,70529,35.54,LA,South
151,70531,27.79,LA,South
152,70532,97.62,LA,South
153,70533,78.55,LA,South
154,70535,150.8,LA,South
155,70537,5.88,LA,South
156,70538,154.87,LA,South
157,70542,189.2,LA,South
158,70543,73.54,LA,South
159,70544,103.94,LA,South
160,70546,151.33,LA,South
161,70548,510.04,LA,South
162,70549,117.56,LA,South
163,70552,18.19,LA,South
164,70554,115.21,LA,South
165,70555,49.52,LA,South
166,70559,82.25,LA,South
167,70560,201.72,LA,South
168,70563,62.46,LA,South
169,70570,173.17,LA,South
170,70577,59.98,LA,South
171,70578,113.56,LA,South
172,70581,24.04,LA,South
173,70582,143.71,LA,South
174,70583,27.72,LA,South
175,70584,35.47,LA,South
176,70586,299.99,LA,South
177,70589,118.43,LA,South
178,70591,170.27,LA,South
179,70592,41.62,LA,South
180,70601,15.49,LA,South
181,70605,43.43,LA,South
182,70607,118.58,LA,South
183,70611,81.77,LA,South
184,70615,49.07,LA,South
185,70629,87.4937748344371,LA,South
186,70630,185.05,LA,South
187,70631,491.76,LA,South
188,70632,97.62,LA,South
189,70633,156.61,LA,South
190,70634,451.75,LA,South
191,70637,40.19,LA,South
192,70639,68.47,LA,South
193,70643,338.34,LA,South
194,70645,107.99,LA,South
195,70647,180.05,LA,South
196,70648,196.47,LA,South
197,70652,100.12,LA,South
198,70653,273.04,LA,South
199,70654,22.59,LA,South
200,70655,175.0,LA,South
201,70656,454.15,LA,South
202,70657,144.91,LA,South
203,70658,88.19,LA,South
204,70660,145.35,LA,South
205,70661,172.52,LA,South
206,70662,21.45,LA,South
207,70663,96.78,LA,South
208,70665,160.85,LA,South
209,70668,143.96,LA,South
210,70669,30.68,LA,South
211,70706,51.46,LA,South
212,70710,8.23,LA,South
213,70711,19.47,LA,South
214,70714,34.41,LA,South
215,70715,184.85,LA,South
216,70719,16.26,LA,South
217,70721,5.08,LA,South
218,70722,166.81,LA,South
219,70723,25.69,LA,South
220,70725,8.5,LA,South
221,70726,92.8,LA,South
222,70729,20.35,LA,South
223,70730,68.77,LA,South
224,70732,41.93,LA,South
225,70733,10.33,LA,South
226,70734,28.04,LA,South
227,70736,3.8,LA,South
228,70737,53.83,LA,South
229,70739,48.71,LA,South
230,70740,86.89,LA,South
231,70744,105.09,LA,South
232,70748,79.39,LA,South
233,70749,24.76,LA,South
234,70750,128.3,LA,South
235,70752,9.46,LA,South
236,70753,68.29,LA,South
237,70754,121.06,LA,South
238,70755,24.21,LA,South
239,70756,14.1,LA,South
240,70757,49.05,LA,South
241,70759,45.49,LA,South
242,70760,32.67,LA,South
243,70761,62.13,LA,South
244,70762,19.29,LA,South
245,70763,11.89,LA,South
246,70764,157.49,LA,South
247,70767,143.99,LA,South
248,70769,48.44,LA,South
249,70770,20.64,LA,South
250,70772,14.13,LA,South
251,70773,87.4937748344371,LA,South
252,70774,75.89,LA,South
253,70775,313.15,LA,South
254,70776,33.36,LA,South
255,70777,62.74,LA,South
256,70778,24.05,LA,South
257,70780,12.72,LA,South
258,70783,19.95,LA,South
259,70785,96.16,LA,South
260,70788,107.73,LA,South
261,70789,23.18,LA,South
262,70791,120.51,LA,South
263,70801,87.4937748344371,LA,South
264,70802,7.7,LA,South
265,70805,11.41,LA,South
266,70806,8.88,LA,South
267,70807,25.5,LA,South
268,70808,12.07,LA,South
269,70809,14.83,LA,South
270,70810,27.07,LA,South
271,70811,11.66,LA,South
272,70812,4.35,LA,South
273,70814,7.75,LA,South
274,70815,9.58,LA,South
275,70816,15.94,LA,South
276,70817,25.75,LA,South
277,70818,14.47,LA,South
278,70819,5.81,LA,South
279,70820,19.01,LA,South
280,70825,87.4937748344371,LA,South
281,70827,87.4937748344371,LA,South
282,70836,87.4937748344371,LA,South
283,71001,123.83,LA,South
284,71002,87.4937748344371,LA,South
285,71003,63.38,LA,South
286,71004,40.14,LA,South
287,71006,204.88,LA,South
288,71007,18.47,LA,South
289,71008,151.1,LA,South
290,71016,124.63,LA,South
291,71018,84.47,LA,South
292,71019,327.31,LA,South
293,71023,48.48,LA,South
294,71024,60.85,LA,South
295,71027,62.88,LA,South
296,71028,129.05,LA,South
297,71029,27.75,LA,South
298,71030,36.1,LA,South
299,71031,148.05,LA,South
300,71032,120.78,LA,South
301,71033,25.36,LA,South
302,71034,3.35,LA,South
303,71037,109.53,LA,South
304,71038,216.65,LA,South
305,71039,46.14,LA,South
306,71040,290.0,LA,South
307,71043,14.01,LA,South
308,71044,53.41,LA,South
309,71045,47.21,LA,South
310,71046,89.43,LA,South
311,71047,107.6,LA,South
312,71048,20.53,LA,South
313,71049,86.73,LA,South
314,71051,93.69,LA,South
315,71052,324.01,LA,South
316,71055,257.81,LA,South
317,71060,67.53,LA,South
318,71061,18.41,LA,South
319,71063,102.85,LA,South
320,71064,214.77,LA,South
321,71065,57.1,LA,South
322,71067,38.43,LA,South
323,71068,143.86,LA,South
324,71069,31.43,LA,South
325,71070,204.46,LA,South
326,71071,47.99,LA,South
327,71072,97.82,LA,South
328,71073,28.54,LA,South
329,71075,37.08,LA,South
330,71078,46.47,LA,South
331,71079,32.97,LA,South
332,71082,75.6,LA,South
333,71101,4.32,LA,South
334,71103,3.79,LA,South
335,71104,3.96,LA,South
336,71105,9.2,LA,South
337,71106,32.44,LA,South
338,71107,142.87,LA,South
339,71108,8.55,LA,South
340,71109,12.56,LA,South
341,71110,87.4937748344371,LA,South
342,71111,45.68,LA,South
343,71112,42.78,LA,South
344,71115,110.35,LA,South
345,71118,13.21,LA,South
346,71119,44.35,LA,South
347,71129,45.17,LA,South
348,71201,12.98,LA,South
349,71202,115.36,LA,South
350,71203,118.84,LA,South
351,71219,60.78,LA,South
352,71220,371.59,LA,South
353,71222,146.56,LA,South
354,71223,55.98,LA,South
355,71225,58.39,LA,South
356,71226,150.24,LA,South
357,71227,111.94,LA,South
358,71229,58.66,LA,South
359,71232,301.45,LA,South
360,71234,118.63,LA,South
361,71235,161.55,LA,South
362,71237,64.79,LA,South
363,71238,109.44,LA,South
364,71241,194.67,LA,South
365,71243,25.49,LA,South
366,71245,7.03,LA,South
367,71250,87.4937748344371,LA,South
368,71251,182.98,LA,South
369,71254,262.9,LA,South
370,71256,48.13,LA,South
371,71259,94.38,LA,South
372,71260,282.93,LA,South
373,71261,126.56,LA,South
374,71263,207.37,LA,South
375,71264,114.08,LA,South
376,71266,113.86,LA,South
377,71268,127.22,LA,South
378,71269,323.07,LA,South
379,71270,204.57,LA,South
380,71275,101.91,LA,South
381,71276,48.6,LA,South
382,71277,109.2,LA,South
383,71280,64.22,LA,South
384,71282,458.16,LA,South
385,71286,92.87,LA,South
386,71291,64.76,LA,South
387,71292,150.83,LA,South
388,71295,318.1,LA,South
389,71301,12.48,LA,South
390,71302,65.83,LA,South
391,71303,66.05,LA,South
392,71316,87.4937748344371,LA,South
393,71322,178.12,LA,South
394,71323,27.41,LA,South
395,71325,85.09,LA,South
396,71326,80.4,LA,South
397,71327,42.03,LA,South
398,71328,121.21,LA,South
399,71331,69.71,LA,South
400,71333,37.9,LA,South
401,71334,170.51,LA,South
402,71336,118.37,LA,South
403,71340,115.4,LA,South
404,71341,25.72,LA,South
405,71342,151.9,LA,South
406,71343,524.54,LA,South
407,71346,82.31,LA,South
408,71350,34.77,LA,South
409,71351,204.14,LA,South
410,71353,75.23,LA,South
411,71354,94.7,LA,South
412,71355,142.26,LA,South
413,71356,34.58,LA,South
414,71357,280.03,LA,South
415,71358,90.27,LA,South
416,71360,195.93,LA,South
417,71362,51.54,LA,South
418,71366,163.73,LA,South
419,71367,66.75,LA,South
420,71368,83.3,LA,South
421,71369,76.18,LA,South
422,71371,149.45,LA,South
423,71373,274.25,LA,South
424,71375,132.99,LA,South
425,71378,49.62,LA,South
426,71401,87.4937748344371,LA,South
427,71403,139.73,LA,South
428,71404,102.12,LA,South
429,71405,14.66,LA,South
430,71406,7.95,LA,South
431,71407,13.73,LA,South
432,71409,134.01,LA,South
433,71411,67.23,LA,South
434,71416,67.43,LA,South
435,71417,138.85,LA,South
436,71418,342.59,LA,South
437,71419,141.05,LA,South
438,71422,145.21,LA,South
439,71423,129.28,LA,South
440,71424,57.8,LA,South
441,71425,37.56,LA,South
442,71427,15.73,LA,South
443,71429,242.56,LA,South
444,71430,85.56,LA,South
445,71432,90.68,LA,South
446,71433,161.33,LA,South
447,71435,201.93,LA,South
448,71438,86.67,LA,South
449,71439,53.87,LA,South
450,71441,54.57,LA,South
451,71446,594.94,LA,South
452,71447,150.62,LA,South
453,71449,235.81,LA,South
454,71450,63.97,LA,South
455,71452,11.22,LA,South
456,71454,105.85,LA,South
457,71455,61.43,LA,South
458,71456,37.09,LA,South
459,71457,264.22,LA,South
460,71459,87.4937748344371,LA,South
461,71461,1.87,LA,South
462,71462,41.11,LA,South
463,71463,238.14,LA,South
464,71465,227.13,LA,South
465,71466,8.52,LA,South
466,71467,179.06,LA,South
467,71468,176.2,LA,South
468,71469,233.73,LA,South
469,71472,19.7,LA,South
470,71473,130.55,LA,South
471,71479,94.47,LA,South
472,71483,367.55,LA,South
473,71485,62.86,LA,South
474,71486,101.31,LA,South
0,38601,96.09,MS,South
1,38603,130.06,MS,South
2,38606,264.37,MS,South
3,38609,123.71504043126686,MS,South
4,38610,95.29,MS,South
5,38611,187.04,MS,South
6,38614,247.99,MS,South
7,38617,55.95,MS,South
8,38618,190.91,MS,South
9,38619,137.43,MS,South
10,38620,56.57,MS,South
11,38621,63.8,MS,South
12,38625,36.64,MS,South
13,38626,161.12,MS,South
14,38627,44.62,MS,South
15,38628,123.71504043126686,MS,South
16,38629,50.58,MS,South
17,38632,169.72,MS,South
18,38633,100.12,MS,South
19,38635,340.33,MS,South
20,38637,16.08,MS,South
21,38641,73.2,MS,South
22,38642,83.14,MS,South
23,38643,166.75,MS,South
24,38645,55.17,MS,South
25,38646,106.22,MS,South
26,38647,56.89,MS,South
27,38650,77.99,MS,South
28,38651,32.97,MS,South
29,38652,155.22,MS,South
30,38654,94.89,MS,South
31,38655,385.11,MS,South
32,38658,35.46,MS,South
33,38659,113.51,MS,South
34,38661,31.77,MS,South
35,38663,197.74,MS,South
36,38664,92.12,MS,South
37,38665,64.08,MS,South
38,38666,136.13,MS,South
39,38668,156.05,MS,South
40,38670,86.44,MS,South
41,38671,22.19,MS,South
42,38672,13.05,MS,South
43,38673,26.31,MS,South
44,38674,37.07,MS,South
45,38675,123.71504043126686,MS,South
46,38676,211.7,MS,South
47,38680,21.78,MS,South
48,38683,138.18,MS,South
49,38685,89.4,MS,South
50,38701,82.61,MS,South
51,38703,164.99,MS,South
52,38720,49.3,MS,South
53,38721,118.77,MS,South
54,38725,131.18,MS,South
55,38726,57.65,MS,South
56,38730,49.31,MS,South
57,38731,123.71504043126686,MS,South
58,38732,79.48,MS,South
59,38733,123.71504043126686,MS,South
60,38736,61.87,MS,South
61,38737,129.93,MS,South
62,38740,67.31,MS,South
63,38744,60.45,MS,South
64,38746,64.11,MS,South
65,38748,271.03,MS,South
66,38751,152.74,MS,South
67,38753,80.84,MS,South
68,38754,88.32,MS,South
69,38756,173.16,MS,South
70,38759,61.38,MS,South
71,38761,50.95,MS,South
72,38762,67.72,MS,South
73,38769,92.95,MS,South
74,38771,56.82,MS,South
75,38773,147.88,MS,South
76,38774,74.51,MS,South
77,38778,69.52,MS,South
78,38801,75.58,MS,South
79,38804,80.91,MS,South
80,38821,142.63,MS,South
81,38824,136.68,MS,South
82,38826,31.13,MS,South
83,38827,34.99,MS,South
84,38828,84.8,MS,South
85,38829,268.06,MS,South
86,38833,52.47,MS,South
87,38834,218.47,MS,South
88,38838,47.23,MS,South
89,38841,31.35,MS,South
90,38843,197.31,MS,South
91,38844,12.71,MS,South
92,38846,37.8,MS,South
93,38847,90.0,MS,South
94,38848,75.05,MS,South
95,38849,70.78,MS,South
96,38850,123.03,MS,South
97,38851,220.78,MS,South
98,38852,200.11,MS,South
99,38855,59.78,MS,South
100,38856,61.23,MS,South
101,38857,18.95,MS,South
102,38858,126.74,MS,South
103,38859,42.75,MS,South
104,38860,130.71,MS,South
105,38862,29.6,MS,South
106,38863,282.49,MS,South
107,38864,89.06,MS,South
108,38865,112.69,MS,South
109,38866,75.05,MS,South
110,38868,74.32,MS,South
111,38870,64.72,MS,South
112,38871,54.01,MS,South
113,38873,84.27,MS,South
114,38876,78.01,MS,South
115,38878,81.13,MS,South
116,38901,239.5,MS,South
117,38913,31.19,MS,South
118,38914,47.18,MS,South
119,38915,109.7,MS,South
120,38916,180.48,MS,South
121,38917,166.67,MS,South
122,38920,56.5,MS,South
123,38921,140.88,MS,South
124,38922,215.88,MS,South
125,38923,79.35,MS,South
126,38924,103.76,MS,South
127,38925,149.43,MS,South
128,38927,61.55,MS,South
129,38928,45.71,MS,South
130,38929,77.36,MS,South
131,38930,200.41,MS,South
132,38940,148.84,MS,South
133,38941,94.93,MS,South
134,38943,26.75,MS,South
135,38944,94.56,MS,South
136,38948,121.73,MS,South
137,38949,16.49,MS,South
138,38950,37.47,MS,South
139,38951,59.03,MS,South
140,38952,110.37,MS,South
141,38953,44.13,MS,South
142,38954,67.94,MS,South
143,38961,56.09,MS,South
144,38963,104.44,MS,South
145,38964,29.9,MS,South
146,38965,245.6,MS,South
147,38967,186.45,MS,South
148,39038,212.79,MS,South
149,39039,142.83,MS,South
150,39040,175.17,MS,South
151,39041,128.86,MS,South
152,39042,223.1,MS,South
153,39044,140.21,MS,South
154,39045,115.19,MS,South
155,39046,308.9,MS,South
156,39047,100.57,MS,South
157,39051,420.49,MS,South
158,39054,4.04,MS,South
159,39056,53.7,MS,South
160,39057,64.64,MS,South
161,39059,159.21,MS,South
162,39063,97.03,MS,South
163,39066,145.66,MS,South
164,39067,104.81,MS,South
165,39069,176.3,MS,South
166,39071,118.28,MS,South
167,39073,159.63,MS,South
168,39074,271.95,MS,South
169,39078,34.51,MS,South
170,39079,66.6,MS,South
171,39082,60.24,MS,South
172,39083,329.68,MS,South
173,39086,157.59,MS,South
174,39088,123.71504043126686,MS,South
175,39090,265.4,MS,South
176,39092,107.26,MS,South
177,39094,163.83,MS,South
178,39095,335.72,MS,South
179,39096,197.2,MS,South
180,39097,55.88,MS,South
181,39108,196.82,MS,South
182,39110,74.66,MS,South
183,39111,139.63,MS,South
184,39114,190.34,MS,South
185,39116,85.6,MS,South
186,39117,264.18,MS,South
187,39119,139.25,MS,South
188,39120,475.86,MS,South
189,39140,97.91,MS,South
190,39144,114.96,MS,South
191,39145,131.27,MS,South
192,39146,135.83,MS,South
193,39149,81.75,MS,South
194,39150,227.17,MS,South
195,39152,59.69,MS,South
196,39153,155.26,MS,South
197,39154,112.37,MS,South
198,39156,59.17,MS,South
199,39157,30.62,MS,South
200,39159,292.26,MS,South
201,39160,143.62,MS,South
202,39162,50.8,MS,South
203,39166,62.02,MS,South
204,39168,154.19,MS,South
205,39169,152.83,MS,South
206,39170,99.46,MS,South
207,39173,123.71504043126686,MS,South
208,39175,242.94,MS,South
209,39176,127.71,MS,South
210,39179,81.65,MS,South
211,39180,206.06,MS,South
212,39183,254.54,MS,South
213,39189,78.88,MS,South
214,39191,220.37,MS,South
215,39192,149.2,MS,South
216,39194,452.34,MS,South
217,39201,123.71504043126686,MS,South
218,39202,3.68,MS,South
219,39203,2.27,MS,South
220,39204,13.54,MS,South
221,39206,8.98,MS,South
222,39208,50.32,MS,South
223,39209,60.84,MS,South
224,39211,12.28,MS,South
225,39212,25.72,MS,South
226,39213,28.72,MS,South
227,39216,3.38,MS,South
228,39218,17.79,MS,South
229,39232,17.17,MS,South
230,39269,123.71504043126686,MS,South
231,39272,22.02,MS,South
232,39301,278.94,MS,South
233,39305,108.98,MS,South
234,39307,95.44,MS,South
235,39320,43.06,MS,South
236,39322,73.66,MS,South
237,39323,52.96,MS,South
238,39325,109.76,MS,South
239,39326,38.6,MS,South
240,39327,104.09,MS,South
241,39328,300.4,MS,South
242,39330,132.23,MS,South
243,39332,71.45,MS,South
244,39335,116.28,MS,South
245,39336,77.58,MS,South
246,39337,64.41,MS,South
247,39338,224.48,MS,South
248,39339,381.13,MS,South
249,39341,376.24,MS,South
250,39342,2.47,MS,South
251,39345,123.37,MS,South
252,39346,78.58,MS,South
253,39347,72.3,MS,South
254,39348,39.65,MS,South
255,39350,412.45,MS,South
256,39352,100.41,MS,South
257,39354,127.47,MS,South
258,39355,262.76,MS,South
259,39356,52.35,MS,South
260,39358,165.91,MS,South
261,39360,232.99,MS,South
262,39361,145.82,MS,South
263,39362,201.32,MS,South
264,39363,23.59,MS,South
265,39364,74.02,MS,South
266,39365,187.83,MS,South
267,39366,77.0,MS,South
268,39367,470.95,MS,South
269,39401,191.88,MS,South
270,39402,87.86,MS,South
271,39421,65.2,MS,South
272,39422,137.35,MS,South
273,39423,96.64,MS,South
274,39425,192.66,MS,South
275,39426,175.92,MS,South
276,39427,58.45,MS,South
277,39428,181.2,MS,South
278,39429,305.43,MS,South
279,39437,167.75,MS,South
280,39439,138.37,MS,South
281,39440,19.75,MS,South
282,39443,263.38,MS,South
283,39451,270.5,MS,South
284,39452,564.38,MS,South
285,39455,354.96,MS,South
286,39456,105.15,MS,South
287,39459,64.37,MS,South
288,39461,45.16,MS,South
289,39462,54.04,MS,South
290,39464,92.73,MS,South
291,39465,132.22,MS,South
292,39466,142.14,MS,South
293,39470,437.87,MS,South
294,39474,158.77,MS,South
295,39475,167.94,MS,South
296,39476,403.52,MS,South
297,39478,73.86,MS,South
298,39479,126.7,MS,South
299,39480,53.78,MS,South
300,39481,39.16,MS,South
301,39482,197.01,MS,South
302,39483,154.96,MS,South
303,39501,13.68,MS,South
304,39503,120.69,MS,South
305,39507,8.07,MS,South
306,39520,92.74,MS,South
307,39525,10.68,MS,South
308,39530,10.31,MS,South
309,39531,6.76,MS,South
310,39532,78.91,MS,South
311,39540,4.6,MS,South
312,39553,26.41,MS,South
313,39556,105.23,MS,South
314,39560,21.81,MS,South
315,39561,28.13,MS,South
316,39562,187.96,MS,South
317,39563,20.37,MS,South
318,39564,53.09,MS,South
319,39565,278.94,MS,South
320,39567,13.3,MS,South
321,39571,85.05,MS,South
322,39572,10.77,MS,South
323,39573,396.96,MS,South
324,39574,227.83,MS,South
325,39576,6.49,MS,South
326,39577,255.59,MS,South
327,39581,19.66,MS,South
328,39601,263.7,MS,South
329,39629,155.62,MS,South
330,39630,3.04,MS,South
331,39631,151.92,MS,South
332,39633,126.99,MS,South
333,39638,175.98,MS,South
334,39641,140.39,MS,South
335,39643,32.12,MS,South
336,39645,320.98,MS,South
337,39647,78.0,MS,South
338,39648,103.75,MS,South
339,39652,176.77,MS,South
340,39653,219.39,MS,South
341,39654,153.95,MS,South
342,39656,45.24,MS,South
343,39657,91.55,MS,South
344,39661,262.18,MS,South
345,39662,45.86,MS,South
346,39663,123.87,MS,South
347,39664,116.52,MS,South
348,39665,59.15,MS,South
349,39666,155.7,MS,South
350,39667,315.9,MS,South
351,39668,115.63,MS,South
352,39669,426.87,MS,South
353,39701,187.26,MS,South
354,39702,101.01,MS,South
355,39705,66.69,MS,South
356,39730,251.79,MS,South
357,39735,154.21,MS,South
358,39737,15.39,MS,South
359,39739,179.31,MS,South
360,39740,83.13,MS,South
361,39741,66.87,MS,South
362,39743,69.22,MS,South
363,39744,252.38,MS,South
364,39745,52.42,MS,South
365,39746,90.6,MS,South
366,39747,151.15,MS,South
367,39750,82.08,MS,South
368,39751,79.17,MS,South
369,39752,69.04,MS,South
370,39755,68.53,MS,South
371,39756,76.21,MS,South
372,39759,324.49,MS,South
373,39766,32.67,MS,South
374,39767,94.78,MS,South
375,39769,141.96,MS,South
376,39771,0.57,MS,South
377,39772,71.93,MS,South
378,39773,230.94,MS,South
379,39776,74.53,MS,South
0,37010,77.33,TN,South
1,37012,34.8,TN,South
2,37013,40.19,TN,South
3,37014,24.64,TN,South
4,37015,153.66,TN,South
5,37016,27.39,TN,South
6,37018,46.24,TN,South
7,37019,16.75,TN,South
8,37020,96.24,TN,South
9,37022,85.38,TN,South
10,37023,17.99,TN,South
11,37025,60.39,TN,South
12,37026,48.24,TN,South
13,37027,55.07,TN,South
14,37028,16.13,TN,South
15,37029,49.06,TN,South
16,37030,63.43,TN,South
17,37031,40.12,TN,South
18,37032,80.71,TN,South
19,37033,252.81,TN,South
20,37034,71.62,TN,South
21,37035,30.12,TN,South
22,37036,97.34,TN,South
23,37037,74.13,TN,South
24,37040,92.41,TN,South
25,37042,60.98,TN,South
26,37043,112.19,TN,South
27,37046,69.91,TN,South
28,37047,60.85,TN,South
29,37048,44.01,TN,South
30,37049,26.43,TN,South
31,37050,50.72,TN,South
32,37051,78.36,TN,South
33,37052,37.63,TN,South
34,37055,203.06,TN,South
35,37057,30.76,TN,South
36,37058,179.45,TN,South
37,37059,26.46,TN,South
38,37060,38.41,TN,South
39,37061,96.24,TN,South
40,37062,68.16,TN,South
41,37064,178.55,TN,South
42,37066,114.56,TN,South
43,37067,31.36,TN,South
44,37069,36.98,TN,South
45,37072,77.88,TN,South
46,37073,50.72,TN,South
47,37074,102.25,TN,South
48,37075,59.37,TN,South
49,37076,27.31,TN,South
50,37078,95.09,TN,South
51,37079,76.89,TN,South
52,37080,48.95,TN,South
53,37082,43.46,TN,South
54,37083,146.74,TN,South
55,37085,56.21,TN,South
56,37086,26.1,TN,South
57,37087,166.08,TN,South
58,37090,162.94,TN,South
59,37091,207.11,TN,South
60,37095,73.44,TN,South
61,37096,296.5,TN,South
62,37097,107.47,TN,South
63,37098,60.09,TN,South
64,37101,200.22,TN,South
65,37110,369.64,TN,South
66,37115,21.29,TN,South
67,37118,34.04,TN,South
68,37122,111.94,TN,South
69,37127,48.5,TN,South
70,37128,54.03,TN,South
71,37129,81.64,TN,South
72,37130,52.32,TN,South
73,37134,39.07,TN,South
74,37135,37.45,TN,South
75,37137,84.34,TN,South
76,37138,17.75,TN,South
77,37140,26.04,TN,South
78,37141,21.28,TN,South
79,37142,36.58,TN,South
80,37143,27.88,TN,South
81,37144,130.31,TN,South
82,37145,70.1,TN,South
83,37146,30.2,TN,South
84,37148,136.67,TN,South
85,37149,65.13,TN,South
86,37150,106.93,TN,South
87,37151,17.97,TN,South
88,37153,57.56,TN,South
89,37160,229.63,TN,South
90,37166,154.76,TN,South
91,37167,57.54,TN,South
92,37171,21.61,TN,South
93,37172,181.02,TN,South
94,37174,68.6,TN,South
95,37175,76.99,TN,South
96,37178,45.29,TN,South
97,37179,53.43,TN,South
98,37180,31.67,TN,South
99,37181,46.98,TN,South
100,37183,79.54,TN,South
101,37184,116.98,TN,South
102,37185,231.28,TN,South
103,37186,105.15,TN,South
104,37187,71.92,TN,South
105,37188,30.08,TN,South
106,37189,25.58,TN,South
107,37190,146.58,TN,South
108,37191,41.52,TN,South
109,37201,0.31,TN,South
110,37203,4.2,TN,South
111,37204,7.4,TN,South
112,37205,14.53,TN,South
113,37206,7.72,TN,South
114,37207,18.99,TN,South
115,37208,4.62,TN,South
116,37209,36.33,TN,South
117,37210,9.24,TN,South
118,37211,21.37,TN,South
119,37212,2.77,TN,South
120,37213,69.42581632653061,TN,South
121,37214,25.07,TN,South
122,37215,15.61,TN,South
123,37216,6.77,TN,South
124,37217,14.48,TN,South
125,37218,39.44,TN,South
126,37219,0.21,TN,South
127,37220,7.43,TN,South
128,37221,51.83,TN,South
129,37228,69.42581632653061,TN,South
130,37238,69.42581632653061,TN,South
131,37245,69.42581632653061,TN,South
132,37247,69.42581632653061,TN,South
133,37248,69.42581632653061,TN,South
134,37249,69.42581632653061,TN,South
135,37301,53.98,TN,South
136,37302,16.4,TN,South
137,37303,149.19,TN,South
138,37304,69.42581632653061,TN,South
139,37305,19.87,TN,South
140,37306,118.83,TN,South
141,37307,51.73,TN,South
142,37308,36.66,TN,South
143,37309,37.97,TN,South
144,37310,42.18,TN,South
145,37311,53.92,TN,South
146,37312,59.82,TN,South
147,37313,33.93,TN,South
148,37317,75.36,TN,South
149,37318,11.96,TN,South
150,37321,112.95,TN,South
151,37322,132.59,TN,South
152,37323,119.47,TN,South
153,37324,72.04,TN,South
154,37325,27.73,TN,South
155,37327,202.19,TN,South
156,37328,30.02,TN,South
157,37329,57.91,TN,South
158,37330,36.01,TN,South
159,37331,41.55,TN,South
160,37332,65.15,TN,South
161,37333,11.46,TN,South
162,37334,254.49,TN,South
163,37335,46.77,TN,South
164,37336,43.41,TN,South
165,37337,62.92,TN,South
166,37338,75.32,TN,South
167,37339,35.09,TN,South
168,37340,12.42,TN,South
169,37341,31.38,TN,South
170,37342,77.12,TN,South
171,37343,42.05,TN,South
172,37345,57.43,TN,South
173,37347,48.58,TN,South
174,37348,36.0,TN,South
175,37350,1.45,TN,South
176,37351,0.46,TN,South
177,37352,49.58,TN,South
178,37353,36.8,TN,South
179,37354,115.34,TN,South
180,37355,217.34,TN,South
181,37356,24.16,TN,South
182,37357,140.51,TN,South
183,37359,36.15,TN,South
184,37360,27.91,TN,South
185,37361,18.38,TN,South
186,37362,75.97,TN,South
187,37363,73.5,TN,South
188,37365,45.29,TN,South
189,37366,44.78,TN,South
190,37367,309.42,TN,South
191,37369,110.64,TN,South
192,37370,63.12,TN,South
193,37373,41.42,TN,South
194,37374,80.73,TN,South
195,37375,65.65,TN,South
196,37376,83.72,TN,South
197,37377,74.62,TN,South
198,37379,105.65,TN,South
199,37380,130.93,TN,South
200,37381,139.19,TN,South
201,37385,245.83,TN,South
202,37387,36.69,TN,South
203,37388,92.62,TN,South
204,37389,69.42581632653061,TN,South
205,37391,25.68,TN,South
206,37396,69.42581632653061,TN,South
207,37397,163.14,TN,South
208,37398,105.05,TN,South
209,37402,1.53,TN,South
210,37403,1.71,TN,South
211,37404,4.93,TN,South
212,37405,55.58,TN,South
213,37406,12.27,TN,South
214,37407,3.5,TN,South
215,37408,1.92,TN,South
216,37409,4.38,TN,South
217,37410,2.95,TN,South
218,37411,8.67,TN,South
219,37412,8.74,TN,South
220,37415,18.19,TN,South
221,37416,11.36,TN,South
222,37419,44.66,TN,South
223,37421,30.38,TN,South
224,37450,69.42581632653061,TN,South
225,37601,46.17,TN,South
226,37604,33.78,TN,South
227,37615,36.38,TN,South
228,37616,44.83,TN,South
229,37617,58.89,TN,South
230,37618,68.94,TN,South
231,37620,127.37,TN,South
232,37640,105.64,TN,South
233,37641,91.42,TN,South
234,37642,58.37,TN,South
235,37643,128.61,TN,South
236,37645,6.0,TN,South
237,37650,99.05,TN,South
238,37656,30.88,TN,South
239,37657,37.05,TN,South
240,37658,56.33,TN,South
241,37659,128.79,TN,South
242,37660,66.22,TN,South
243,37663,26.67,TN,South
244,37664,32.64,TN,South
245,37665,3.11,TN,South
246,37680,26.78,TN,South
247,37681,67.15,TN,South
248,37683,135.91,TN,South
249,37686,29.52,TN,South
250,37687,84.32,TN,South
251,37688,54.15,TN,South
252,37690,23.11,TN,South
253,37691,15.61,TN,South
254,37692,52.66,TN,South
255,37694,13.01,TN,South
256,37701,10.54,TN,South
257,37705,43.52,TN,South
258,37708,42.25,TN,South
259,37709,43.82,TN,South
260,37710,81.74,TN,South
261,37711,54.87,TN,South
262,37713,32.6,TN,South
263,37714,79.09,TN,South
264,37715,26.78,TN,South
265,37716,84.25,TN,South
266,37721,49.28,TN,South
267,37722,91.47,TN,South
268,37723,54.85,TN,South
269,37724,22.73,TN,South
270,37725,94.76,TN,South
271,37726,97.68,TN,South
272,37727,112.63,TN,South
273,37729,49.98,TN,South
274,37731,48.03,TN,South
275,37737,26.34,TN,South
276,37738,210.01,TN,South
277,37742,49.73,TN,South
278,37743,220.47,TN,South
279,37745,116.47,TN,South
280,37748,102.24,TN,South
281,37752,51.57,TN,South
282,37753,30.06,TN,South
283,37754,37.86,TN,South
284,37755,44.3,TN,South
285,37756,98.64,TN,South
286,37757,28.16,TN,South
287,37760,39.98,TN,South
288,37762,13.69,TN,South
289,37763,91.08,TN,South
290,37764,34.67,TN,South
291,37765,19.28,TN,South
292,37766,153.19,TN,South
293,37769,28.84,TN,South
294,37770,119.0,TN,South
295,37771,48.54,TN,South
296,37772,39.07,TN,South
297,37774,87.42,TN,South
298,37777,33.09,TN,South
299,37779,38.22,TN,South
300,37801,69.65,TN,South
301,37803,97.53,TN,South
302,37804,34.8,TN,South
303,37806,15.6,TN,South
304,37807,79.28,TN,South
305,37809,33.06,TN,South
306,37810,33.5,TN,South
307,37811,37.39,TN,South
308,37813,58.4,TN,South
309,37814,44.51,TN,South
310,37818,45.7,TN,South
311,37819,21.88,TN,South
312,37820,65.26,TN,South
313,37821,125.63,TN,South
314,37825,86.7,TN,South
315,37826,54.96,TN,South
316,37829,55.96,TN,South
317,37830,84.77,TN,South
318,37840,85.24,TN,South
319,37841,173.28,TN,South
320,37843,51.94,TN,South
321,37846,74.11,TN,South
322,37847,132.14,TN,South
323,37848,6.76,TN,South
324,37849,39.4,TN,South
325,37852,81.35,TN,South
326,37853,15.53,TN,South
327,37854,137.23,TN,South
328,37857,236.87,TN,South
329,37860,25.47,TN,South
330,37861,99.95,TN,South
331,37862,84.01,TN,South
332,37863,18.37,TN,South
333,37865,70.65,TN,South
334,37866,52.73,TN,South
335,37869,135.15,TN,South
336,37870,83.4,TN,South
337,37871,39.76,TN,South
338,37872,95.58,TN,South
339,37873,61.63,TN,South
340,37874,101.66,TN,South
341,37876,187.86,TN,South
342,37877,25.79,TN,South
343,37878,37.79,TN,South
344,37879,174.33,TN,South
345,37880,71.01,TN,South
346,37881,71.3,TN,South
347,37882,159.82,TN,South
348,37885,168.21,TN,South
349,37886,43.87,TN,South
350,37887,91.97,TN,South
351,37888,54.55,TN,South
352,37890,33.96,TN,South
353,37891,32.16,TN,South
354,37892,75.43,TN,South
355,37902,0.47,TN,South
356,37909,7.0,TN,South
357,37912,10.84,TN,South
358,37914,39.83,TN,South
359,37915,1.88,TN,South
360,37916,1.49,TN,South
361,37917,9.84,TN,South
362,37918,35.07,TN,South
363,37919,18.95,TN,South
364,37920,72.5,TN,South
365,37921,15.3,TN,South
366,37922,27.2,TN,South
367,37923,11.22,TN,South
368,37924,27.61,TN,South
369,37929,69.42581632653061,TN,South
370,37931,28.68,TN,South
371,37932,28.78,TN,South
372,37934,17.49,TN,South
373,37938,32.34,TN,South
374,38001,67.8,TN,South
375,38002,116.42,TN,South
376,38004,26.4,TN,South
377,38006,100.98,TN,South
378,38008,148.25,TN,South
379,38011,58.93,TN,South
380,38012,270.05,TN,South
381,38015,43.4,TN,South
382,38016,19.11,TN,South
383,38017,84.75,TN,South
384,38018,18.46,TN,South
385,38019,137.99,TN,South
386,38023,65.95,TN,South
387,38024,141.45,TN,South
388,38028,57.83,TN,South
389,38030,129.19,TN,South
390,38034,100.59,TN,South
391,38037,49.59,TN,South
392,38039,65.52,TN,South
393,38040,108.85,TN,South
394,38041,100.52,TN,South
395,38042,49.4,TN,South
396,38044,41.64,TN,South
397,38047,69.42581632653061,TN,South
398,38049,111.59,TN,South
399,38052,125.56,TN,South
400,38053,176.35,TN,South
401,38057,104.84,TN,South
402,38058,26.4,TN,South
403,38059,128.3,TN,South
404,38060,44.1,TN,South
405,38061,63.62,TN,South
406,38063,305.11,TN,South
407,38066,61.28,TN,South
408,38067,64.53,TN,South
409,38068,270.39,TN,South
410,38069,131.49,TN,South
411,38075,133.51,TN,South
412,38076,23.85,TN,South
413,38079,105.87,TN,South
414,38080,140.84,TN,South
415,38103,2.62,TN,South
416,38104,5.1,TN,South
417,38105,1.7,TN,South
418,38106,25.93,TN,South
419,38107,5.4,TN,South
420,38108,7.0,TN,South
421,38109,67.31,TN,South
422,38111,9.9,TN,South
423,38112,4.5,TN,South
424,38114,7.54,TN,South
425,38115,8.58,TN,South
426,38116,19.01,TN,South
427,38117,9.34,TN,South
428,38118,31.21,TN,South
429,38119,8.84,TN,South
430,38120,9.64,TN,South
431,38122,7.54,TN,South
432,38125,19.08,TN,South
433,38126,1.82,TN,South
434,38127,37.58,TN,South
435,38128,23.63,TN,South
436,38131,69.42581632653061,TN,South
437,38132,69.42581632653061,TN,South
438,38133,12.66,TN,South
439,38134,18.61,TN,South
440,38135,12.79,TN,South
441,38137,69.42581632653061,TN,South
442,38138,11.86,TN,South
443,38139,8.87,TN,South
444,38141,7.8,TN,South
445,38157,69.42581632653061,TN,South
446,38201,141.68,TN,South
447,38220,39.05,TN,South
448,38221,108.45,TN,South
449,38222,70.51,TN,South
450,38224,56.04,TN,South
451,38225,110.33,TN,South
452,38226,23.53,TN,South
453,38227,69.42581632653061,TN,South
454,38229,60.07,TN,South
455,38230,85.94,TN,South
456,38231,52.84,TN,South
457,38232,51.11,TN,South
458,38233,95.18,TN,South
459,38236,36.52,TN,South
460,38237,130.34,TN,South
461,38240,86.91,TN,South
462,38241,65.85,TN,South
463,38242,184.49,TN,South
464,38251,89.26,TN,South
465,38253,53.33,TN,South
466,38255,47.02,TN,South
467,38256,58.67,TN,South
468,38257,54.64,TN,South
469,38258,27.27,TN,South
470,38259,27.91,TN,South
471,38260,65.73,TN,South
472,38261,186.3,TN,South
473,38301,165.01,TN,South
474,38305,129.37,TN,South
475,38310,114.05,TN,South
476,38311,58.44,TN,South
477,38313,72.7,TN,South
478,38315,111.51,TN,South
479,38316,63.78,TN,South
480,38317,36.1,TN,South
481,38318,41.35,TN,South
482,38320,147.59,TN,South
483,38321,95.4,TN,South
484,38326,53.23,TN,South
485,38327,3.07,TN,South
486,38328,24.98,TN,South
487,38329,108.31,TN,South
488,38330,69.64,TN,South
489,38332,53.79,TN,South
490,38333,24.7,TN,South
491,38334,47.31,TN,South
492,38337,27.05,TN,South
493,38339,18.48,TN,South
494,38340,177.82,TN,South
495,38341,137.44,TN,South
496,38342,34.45,TN,South
497,38343,138.55,TN,South
498,38344,161.57,TN,South
499,38345,50.0,TN,South
500,38347,4.06,TN,South
501,38348,50.9,TN,South
502,38351,210.69,TN,South
503,38352,19.09,TN,South
504,38355,37.52,TN,South
505,38356,72.13,TN,South
506,38357,61.58,TN,South
507,38358,82.59,TN,South
508,38359,5.84,TN,South
509,38361,40.59,TN,South
510,38362,8.33,TN,South
511,38363,91.43,TN,South
512,38366,46.1,TN,South
513,38367,78.08,TN,South
514,38368,53.95,TN,South
515,38369,38.76,TN,South
516,38370,19.5,TN,South
517,38371,42.69,TN,South
518,38372,318.16,TN,South
519,38374,44.03,TN,South
520,38375,114.52,TN,South
521,38376,4.12,TN,South
522,38379,29.36,TN,South
523,38380,40.88,TN,South
524,38381,55.3,TN,South
525,38382,173.74,TN,South
526,38387,34.9,TN,South
527,38388,75.03,TN,South
528,38390,26.94,TN,South
529,38391,61.56,TN,South
530,38392,33.85,TN,South
531,38401,300.73,TN,South
532,38425,106.37,TN,South
533,38449,57.05,TN,South
534,38450,112.12,TN,South
535,38451,80.94,TN,South
536,38452,53.12,TN,South
537,38453,15.63,TN,South
538,38454,61.15,TN,South
539,38456,72.55,TN,South
540,38457,27.2,TN,South
541,38459,21.02,TN,South
542,38460,33.36,TN,South
543,38461,70.01,TN,South
544,38462,198.26,TN,South
545,38463,113.2,TN,South
546,38464,279.39,TN,South
547,38468,98.52,TN,South
548,38469,67.71,TN,South
549,38471,72.25,TN,South
550,38472,99.37,TN,South
551,38473,25.37,TN,South
552,38474,108.49,TN,South
553,38475,62.82,TN,South
554,38476,41.71,TN,South
555,38477,94.03,TN,South
556,38478,261.23,TN,South
557,38481,11.67,TN,South
558,38482,42.95,TN,South
559,38483,97.58,TN,South
560,38485,270.82,TN,South
561,38486,71.47,TN,South
562,38487,48.74,TN,South
563,38488,58.84,TN,South
564,38501,89.13,TN,South
565,38504,47.73,TN,South
566,38506,162.44,TN,South
567,38541,51.01,TN,South
568,38542,69.42581632653061,TN,South
569,38543,47.36,TN,South
570,38544,82.91,TN,South
571,38545,24.68,TN,South
572,38547,32.78,TN,South
573,38548,26.9,TN,South
574,38549,73.59,TN,South
575,38551,92.82,TN,South
576,38552,6.33,TN,South
577,38553,47.92,TN,South
578,38554,32.23,TN,South
579,38555,97.01,TN,South
580,38556,318.41,TN,South
581,38558,22.47,TN,South
582,38559,19.58,TN,South
583,38560,33.99,TN,South
584,38562,136.71,TN,South
585,38563,31.7,TN,South
586,38564,28.47,TN,South
587,38565,10.69,TN,South
588,38567,21.79,TN,South
589,38568,73.58,TN,South
590,38569,15.64,TN,South
591,38570,106.84,TN,South
592,38571,226.13,TN,South
593,38572,154.69,TN,South
594,38573,65.37,TN,South
595,38574,172.56,TN,South
596,38575,41.36,TN,South
597,38577,75.36,TN,South
598,38579,16.35,TN,South
599,38580,34.94,TN,South
600,38581,99.38,TN,South
601,38582,46.17,TN,South
602,38583,358.16,TN,South
603,38585,165.81,TN,South
604,38587,30.46,TN,South
605,38588,92.09,TN,South
606,38589,30.7,TN,South
